; Generated by Kiri:Moto 3.3.1
; Wed Jun 24 2026 14:05:45 GMT-0400 (Eastern Daylight Time)
; Bed left:0 right:256 top:256 bottom:0
; Bed type: fixed
; Target: Flashforge.Creator.5
; --- process ---
; processName = Standard PLA Multi-Tool
; sliceHeight = 0.2
; sliceShells = 3
; sliceShellOrder = out-in
; sliceLayerStart = last
; sliceFillAngle = 45
; sliceFillOverlap = 0.4
; sliceFillSparse = 0.15
; sliceFillType = linear
; sliceSupportDensity = 0.2
; sliceSupportOffset = 0.4
; sliceSupportGap = 1
; sliceSupportSize = 5
; sliceSupportArea = 0.25
; sliceSupportExtra = 0
; sliceSupportAngle = 60
; sliceSupportNozzle = 0
; sliceBottomLayers = 3
; sliceTopLayers = 3
; firstLayerRate = 20
; outputTemp = 215
; outputBedTemp = 60
; outputFanSpeed = 255
; outputFeedrate = 120
; outputFinishrate = 70
; outputSeekrate = 200
; outputShellMult = 1
; outputFillMult = 1
; outputSparseMult = 1
; outputRetractDist = 1
; outputRetractSpeed = 30
; outputRetractWipe = 0
; outputRetractDwell = 5
; outputMinSpeed = 1
; outputCoastDist = 0
; zHopDistance = 0.2
; firstSliceHeight = 0.25
; firstLayerNozzleTemp = 215
; firstLayerBedTemp = 60
; outputBrimCount = 3
; outputBrimOffset = 2
; outputPurgeTower = 0
; outputInvertX = false
; outputInvertY = false
; ranges = []
; outputOriginCenter = false
; sliceLineWidth = 0
; sliceFillGrow = 0
; sliceFillWidth = 1
; sliceFillRepeat = 1
; sliceFillRate = 0
; sliceSolidRate = 0
; sliceSupportSpan = 5
; sliceSupportEnable = false
; sliceSupportOutline = true
; sliceSolidMinArea = 1
; sliceSolidLayers = 3
; firstLayerFillRate = 35
; firstLayerPrintMult = 1
; firstLayerLineMult = 1
; firstLayerYOffset = 0
; firstLayerBrim = 0
; firstLayerBrimIn = 0
; firstLayerBrimTrig = 0
; firstLayerBrimGap = 0
; firstLayerBeltLead = 3
; firstLayerBeltBump = 0
; firstLayerFanSpeed = 0
; firstLayerFlatten = 0
; outputRaft = false
; outputRaftSpacing = 0.2
; outputDraftShield = false
; outputShortPoly = 100
; outputBeltFirst = false
; outputAvoidGaps = true
; outputLayerRetract = false
; outputLoops = 0
; sliceDetectThin = off
; sliceMinHeight = 0
; sliceAdaptive = false
; arcTolerance = 0
; antiBacklash = 1
; beltAnchor = 3
; --- startup ---
; HEADER_BLOCK_START
; FlashForge Creator 5 - 4 toolhead toolchanger (FlashSwap)
; total layer number: 24
; max_z_height: 256
; toolheads in use: 2
; NOTE: dialect modeled on confirmed Flashforge AD5X/AD5M output, but the
;       Creator 5 toolchanger swap is BEST-EFFORT (no reference gcode yet).
;       Validate start/toolchange/end against an Orca-Flashforge export.
; HEADER_BLOCK_END
; EXECUTABLE_BLOCK_START
M73 P0 R5
M106 S0
M106 P2 S0
;TYPE:Custom
M140 S60
; preheat each toolhead that is used in this print
M104 T0 S215
M104 T2 S215
M190 S60
G28 ; home all axes
T0 ; pick up first toolhead
M109 T0 S215
G90
M83 ; relative extrusion
G21
SET_PRESSURE_ADVANCE ADVANCE=0.025
G1 Z5 F6000
G1 E-0.2 F800
G1 X50 Y256 Z0.25 F4800
G1 E2 F800
G1 X70 E8 F2400
G1 X236 E10 F2400
G0 Y255.6
G1 X146 E5 F2400
G92 E0
M106 S0
M106 P2 S0
G1 E-1.0000 F1800 ; e-retract 1
;LAYER_CHANGE 0 of 24
SET_VELOCITY_LIMIT ACCEL=500
M106 S0
G1 Z0.2550 F12000
; feature brim
G1 X148.7000 Y116.8000
G1 E1.0000 F1800 ; e-engage 1
G4 P5
G1 X107.3000 E1.3518 F1200
G1 Y139.2000 E0.7314
G1 X148.7000 E1.3518
G1 Y116.8000 E0.7314
G1 X149.1000 Y116.4000 F12000
G1 X106.9000 E1.3780 F1200
G1 Y139.6000 E0.7576
G1 X149.1000 E1.3780
G1 Y116.4000 E0.7576
G1 X149.5000 Y116.0000 F12000
G1 X106.5000 E1.4041 F1200
G1 Y140.0000 E0.7837
G1 X149.5000 E1.4041
G1 Y116.0000 E0.7837
G1 E-1.0000 F1800 ; e-retract 1
G1 Z0.4550 F12000 ; z-hop start
; feature shells
G1 X146.3000 Y119.2000
G1 Z0.2550 ; z-hop end
G1 E1.0000 F1800 ; e-engage 1
G4 P5
G1 X128.7000 E0.5747 F863
G1 Y136.8000 E0.5747
G1 X146.3000 E0.5747
G1 Y119.2000 E0.5747
G1 X145.9000 Y119.6000 F12000
G1 X129.1000 E0.5486 F826
G1 Y136.4000 E0.5486
G1 X145.9000 E0.5486
G1 Y119.6000 E0.5486
G1 X145.5000 Y120.0000 F12000
G1 X129.5000 E0.5224 F790
G1 Y136.0000 E0.5224
G1 X145.5000 E0.5224
G1 Y120.0000 E0.5224
; feature solid fill
G1 X145.2600 Y120.8057 F12000
G1 X144.6943 Y120.2400 E0.0261 F2100
G1 X144.1286 E0.0185
G1 X145.2600 Y121.3714 E0.0522
G1 Y121.9371 E0.0185
G1 X143.5629 Y120.2400 E0.0784
G1 X142.9973 E0.0185
G1 X145.2600 Y122.5027 E0.1045
G1 Y123.0684 E0.0185
G1 X142.4316 Y120.2400 E0.1306
G1 X141.8659 E0.0185
G1 X145.2600 Y123.6341 E0.1567
G1 Y124.1998 E0.0185
G1 X141.3002 Y120.2400 E0.1829
G1 X140.7345 E0.0185
G1 X145.2600 Y124.7655 E0.2090
G1 Y125.3312 E0.0185
G1 X140.1688 Y120.2400 E0.2351
G1 X139.6031 E0.0185
G1 X145.2600 Y125.8969 E0.2612
G1 Y126.4625 E0.0185
G1 X139.0375 Y120.2400 E0.2873
G1 X138.4718 E0.0185
G1 X145.2600 Y127.0282 E0.3135
G1 Y127.5939 E0.0185
G1 X137.9061 Y120.2400 E0.3396
G1 X137.3404 E0.0185
G1 X145.2600 Y128.1596 E0.3657
G1 Y128.7253 E0.0185
G1 X136.7747 Y120.2400 E0.3918
G1 X136.2090 E0.0185
G1 X145.2600 Y129.2910 E0.4180
G1 Y129.8567 E0.0185
G1 X135.6433 Y120.2400 E0.4441
G1 X135.0777 E0.0185
G1 X145.2600 Y130.4223 E0.4702
G1 Y130.9880 E0.0185
G1 X134.5120 Y120.2400 E0.4963
G1 X133.9463 E0.0185
G1 X145.2600 Y131.5537 E0.5224
G1 Y132.1194 E0.0185
G1 X133.3806 Y120.2400 E0.5486
G1 X132.8149 E0.0185
G1 X145.2600 Y132.6851 E0.5747
G1 Y133.2508 E0.0185
G1 X132.2492 Y120.2400 E0.6008
G1 X131.6835 E0.0185
G1 X145.2600 Y133.8165 E0.6269
G1 Y134.3821 E0.0185
G1 X131.1179 Y120.2400 E0.6531
G1 X130.5522 E0.0185
G1 X145.2600 Y134.9478 E0.6792
G1 Y135.5135 E0.0185
G1 X129.9865 Y120.2400 E0.7053
G1 X129.7400 Y120.5592 E0.0132
G1 X144.9408 Y135.7600 E0.7019
G1 X144.3751 E0.0185
G1 X129.7400 Y121.1249 E0.6758
G1 Y121.6906 E0.0185
G1 X143.8094 Y135.7600 E0.6497
G1 X143.2437 E0.0185
G1 X129.7400 Y122.2562 E0.6236
G1 Y122.8219 E0.0185
G1 X142.6781 Y135.7600 E0.5975
G1 X142.1124 E0.0185
G1 X129.7400 Y123.3876 E0.5713
G1 Y123.9533 E0.0185
G1 X141.5467 Y135.7600 E0.5452
G1 X140.9810 E0.0185
G1 X129.7400 Y124.5190 E0.5191
G1 Y125.0847 E0.0185
G1 X140.4153 Y135.7600 E0.4930
G1 X139.8496 E0.0185
G1 X129.7400 Y125.6504 E0.4668
G1 Y126.2160 E0.0185
G1 X139.2839 Y135.7600 E0.4407
G1 X138.7183 E0.0185
G1 X129.7400 Y126.7817 E0.4146
G1 Y127.3474 E0.0185
G1 X138.1526 Y135.7600 E0.3885
G1 X137.5869 E0.0185
G1 X129.7400 Y127.9131 E0.3624
G1 Y128.4788 E0.0185
G1 X137.0212 Y135.7600 E0.3362
G1 X136.4555 E0.0185
G1 X129.7400 Y129.0445 E0.3101
G1 Y129.6102 E0.0185
G1 X135.8898 Y135.7600 E0.2840
G1 X135.3242 E0.0185
G1 X129.7400 Y130.1758 E0.2579
G1 Y130.7415 E0.0185
G1 X134.7585 Y135.7600 E0.2317
G1 X134.1928 E0.0185
G1 X129.7400 Y131.3072 E0.2056
G1 Y131.8729 E0.0185
G1 X133.6271 Y135.7600 E0.1795
G1 X133.0614 E0.0185
G1 X129.7400 Y132.4386 E0.1534
G1 Y133.0043 E0.0185
G1 X132.4957 Y135.7600 E0.1273
G1 X131.9300 E0.0185
G1 X129.7400 Y133.5700 E0.1011
G1 Y134.1356 E0.0185
G1 X131.3644 Y135.7600 E0.0750
G1 X130.7987 E0.0185
G1 X129.7400 Y134.7013 E0.0489
G1 X129.9865 Y135.5135 E0.0277
G1 E-1.0000 F1800 ; e-retract 1
G1 Z0.4550 F12000 ; z-hop start
; feature shells
G1 E-1 F3600
; --- toolchange to T2 ---
M104 T2 S215
T2
M109 T2 S215
G92 E0
G1 X127.3000 Y136.8000
G1 Z0.2550 ; z-hop end
G1 E1.0000 F1800 ; e-engage 1
G4 P5
G1 Y119.2000 E0.5747 F863
G1 X109.7000 E0.5747
G1 Y136.8000 E0.5747
G1 X127.3000 E0.5747
G1 X126.9000 Y136.4000 F12000
G1 Y119.6000 E0.5486 F826
G1 X110.1000 E0.5486
G1 Y136.4000 E0.5486
G1 X126.9000 E0.5486
G1 X126.5000 Y136.0000 F12000
G1 Y120.0000 E0.5224 F790
G1 X110.5000 E0.5224
G1 Y136.0000 E0.5224
G1 X126.5000 E0.5224
G1 E-1.0000 F1800 ; e-retract 1
G1 Z0.4550 F12000 ; z-hop start
; feature solid fill
G1 X127.2600 Y119.8057
G1 X126.2600 Y120.8057
G1 Z0.2550 ; z-hop end
G1 E1.0000 F1800 ; e-engage 1
G4 P5
G1 X125.6943 Y120.2400 E0.0261 F2100
G1 X125.1286 E0.0185
G1 X126.2600 Y121.3714 E0.0522
G1 Y121.9371 E0.0185
G1 X124.5629 Y120.2400 E0.0784
G1 X123.9973 E0.0185
G1 X126.2600 Y122.5027 E0.1045
G1 Y123.0684 E0.0185
G1 X123.4316 Y120.2400 E0.1306
G1 X122.8659 E0.0185
G1 X126.2600 Y123.6341 E0.1567
G1 Y124.1998 E0.0185
G1 X122.3002 Y120.2400 E0.1829
G1 X121.7345 E0.0185
G1 X126.2600 Y124.7655 E0.2090
G1 Y125.3312 E0.0185
G1 X121.1688 Y120.2400 E0.2351
G1 X120.6031 E0.0185
G1 X126.2600 Y125.8969 E0.2612
G1 Y126.4625 E0.0185
G1 X120.0375 Y120.2400 E0.2873
G1 X119.4718 E0.0185
G1 X126.2600 Y127.0282 E0.3135
G1 Y127.5939 E0.0185
G1 X118.9061 Y120.2400 E0.3396
G1 X118.3404 E0.0185
G1 X126.2600 Y128.1596 E0.3657
G1 Y128.7253 E0.0185
G1 X117.7747 Y120.2400 E0.3918
G1 X117.2090 E0.0185
G1 X126.2600 Y129.2910 E0.4180
G1 Y129.8567 E0.0185
G1 X116.6433 Y120.2400 E0.4441
G1 X116.0777 E0.0185
G1 X126.2600 Y130.4223 E0.4702
G1 Y130.9880 E0.0185
G1 X115.5120 Y120.2400 E0.4963
G1 X114.9463 E0.0185
G1 X126.2600 Y131.5537 E0.5224
G1 Y132.1194 E0.0185
G1 X114.3806 Y120.2400 E0.5486
G1 X113.8149 E0.0185
G1 X126.2600 Y132.6851 E0.5747
G1 Y133.2508 E0.0185
G1 X113.2492 Y120.2400 E0.6008
G1 X112.6835 E0.0185
G1 X126.2600 Y133.8165 E0.6269
G1 Y134.3821 E0.0185
G1 X112.1179 Y120.2400 E0.6531
G1 X111.5522 E0.0185
G1 X126.2600 Y134.9478 E0.6792
G1 Y135.5135 E0.0185
G1 X110.9865 Y120.2400 E0.7053
G1 X110.7400 Y120.5592 E0.0132
G1 X125.9408 Y135.7600 E0.7019
G1 X125.3751 E0.0185
G1 X110.7400 Y121.1249 E0.6758
G1 Y121.6906 E0.0185
G1 X124.8094 Y135.7600 E0.6497
G1 X124.2437 E0.0185
G1 X110.7400 Y122.2562 E0.6236
G1 Y122.8219 E0.0185
G1 X123.6781 Y135.7600 E0.5975
G1 X123.1124 E0.0185
G1 X110.7400 Y123.3876 E0.5713
G1 Y123.9533 E0.0185
G1 X122.5467 Y135.7600 E0.5452
G1 X121.9810 E0.0185
G1 X110.7400 Y124.5190 E0.5191
G1 Y125.0847 E0.0185
G1 X121.4153 Y135.7600 E0.4930
G1 X120.8496 E0.0185
G1 X110.7400 Y125.6504 E0.4668
G1 Y126.2160 E0.0185
G1 X120.2839 Y135.7600 E0.4407
G1 X119.7183 E0.0185
G1 X110.7400 Y126.7817 E0.4146
G1 Y127.3474 E0.0185
G1 X119.1526 Y135.7600 E0.3885
G1 X118.5869 E0.0185
G1 X110.7400 Y127.9131 E0.3624
G1 Y128.4788 E0.0185
G1 X118.0212 Y135.7600 E0.3362
G1 X117.4555 E0.0185
G1 X110.7400 Y129.0445 E0.3101
G1 Y129.6102 E0.0185
G1 X116.8898 Y135.7600 E0.2840
G1 X116.3242 E0.0185
G1 X110.7400 Y130.1758 E0.2579
G1 Y130.7415 E0.0185
G1 X115.7585 Y135.7600 E0.2317
G1 X115.1928 E0.0185
G1 X110.7400 Y131.3072 E0.2056
G1 Y131.8729 E0.0185
G1 X114.6271 Y135.7600 E0.1795
G1 X114.0614 E0.0185
G1 X110.7400 Y132.4386 E0.1534
G1 Y133.0043 E0.0185
G1 X113.4957 Y135.7600 E0.1273
G1 X112.9300 E0.0185
G1 X110.7400 Y133.5700 E0.1011
G1 Y134.1356 E0.0185
G1 X112.3644 Y135.7600 E0.0750
G1 X111.7987 E0.0185
G1 X110.7400 Y134.7013 E0.0489
G1 X110.9865 Y135.5135 E0.0277
G1 E-1.0000 F1800 ; e-retract 1
G1 Z0.4550 F12000 ; z-hop start
;LAYER_CHANGE 1 of 24
SET_VELOCITY_LIMIT ACCEL=10000
M106 S255
G1 Z0.4500
; feature shells
G1 X109.7000 Y136.8000
G1 E1.0000 F1800 ; e-engage 1
G4 P5
G1 X127.3000 E0.4598 F2975
G1 Y119.2000 E0.4598
G1 X109.7000 E0.4598
G1 Y136.8000 E0.4598
G1 X110.1000 Y136.4000 F12000
G1 X126.9000 E0.4389 F4858
G1 Y119.6000 E0.4389
G1 X110.1000 E0.4389
G1 Y136.4000 E0.4389
G1 X110.5000 Y136.0000 F12000
G1 X126.5000 E0.4180 F4630
G1 Y120.0000 E0.4180
G1 X110.5000 E0.4180
G1 Y136.0000 E0.4180
G1 E-1.0000 F1800 ; e-retract 1
G1 Z0.6500 F12000 ; z-hop start
; feature solid fill
G1 X112.3057 Y119.2400
G1 X111.3057 Y120.2400
G1 Z0.4500 ; z-hop end
G1 E1.0000 F1800 ; e-engage 1
G4 P5
G1 X110.7400 Y120.8057 E0.0209 F7200
G1 Y121.3714 E0.0148
G1 X111.8714 Y120.2400 E0.0418
G1 X112.4371 E0.0148
G1 X110.7400 Y121.9371 E0.0627
G1 Y122.5027 E0.0148
G1 X113.0027 Y120.2400 E0.0836
G1 X113.5684 E0.0148
G1 X110.7400 Y123.0684 E0.1045
G1 Y123.6341 E0.0148
G1 X114.1341 Y120.2400 E0.1254
G1 X114.6998 E0.0148
G1 X110.7400 Y124.1998 E0.1463
G1 Y124.7655 E0.0148
G1 X115.2655 Y120.2400 E0.1672
G1 X115.8312 E0.0148
G1 X110.7400 Y125.3312 E0.1881
G1 Y125.8969 E0.0148
G1 X116.3969 Y120.2400 E0.2090
G1 X116.9625 E0.0148
G1 X110.7400 Y126.4625 E0.2299
G1 Y127.0282 E0.0148
G1 X117.5282 Y120.2400 E0.2508
G1 X118.0939 E0.0148
G1 X110.7400 Y127.5939 E0.2717
G1 Y128.1596 E0.0148
G1 X118.6596 Y120.2400 E0.2926
G1 X119.2253 E0.0148
G1 X110.7400 Y128.7253 E0.3135
G1 Y129.2910 E0.0148
G1 X119.7910 Y120.2400 E0.3344
G1 X120.3567 E0.0148
G1 X110.7400 Y129.8567 E0.3553
G1 Y130.4223 E0.0148
G1 X120.9223 Y120.2400 E0.3762
G1 X121.4880 E0.0148
G1 X110.7400 Y130.9880 E0.3971
G1 Y131.5537 E0.0148
G1 X122.0537 Y120.2400 E0.4180
G1 X122.6194 E0.0148
G1 X110.7400 Y132.1194 E0.4389
G1 Y132.6851 E0.0148
G1 X123.1851 Y120.2400 E0.4598
G1 X123.7508 E0.0148
G1 X110.7400 Y133.2508 E0.4807
G1 Y133.8165 E0.0148
G1 X124.3165 Y120.2400 E0.5016
G1 X124.8821 E0.0148
G1 X110.7400 Y134.3821 E0.5224
G1 Y134.9478 E0.0148
G1 X125.4478 Y120.2400 E0.5433
G1 X126.0135 E0.0148
G1 X110.7400 Y135.5135 E0.5642
G1 X111.0592 Y135.7600 E0.0105
G1 X126.2600 Y120.5592 E0.5616
G1 Y121.1249 E0.0148
G1 X111.6249 Y135.7600 E0.5407
G1 X112.1906 E0.0148
G1 X126.2600 Y121.6906 E0.5198
G1 Y122.2562 E0.0148
G1 X112.7563 Y135.7600 E0.4989
G1 X113.3219 E0.0148
G1 X126.2600 Y122.8219 E0.4780
G1 Y123.3876 E0.0148
G1 X113.8876 Y135.7600 E0.4571
G1 X114.4533 E0.0148
G1 X126.2600 Y123.9533 E0.4362
G1 Y124.5190 E0.0148
G1 X115.0190 Y135.7600 E0.4153
G1 X115.5847 E0.0148
G1 X126.2600 Y125.0847 E0.3944
G1 Y125.6504 E0.0148
G1 X116.1504 Y135.7600 E0.3735
G1 X116.7161 E0.0148
G1 X126.2600 Y126.2160 E0.3526
G1 Y126.7817 E0.0148
G1 X117.2817 Y135.7600 E0.3317
G1 X117.8474 E0.0148
G1 X126.2600 Y127.3474 E0.3108
G1 Y127.9131 E0.0148
G1 X118.4131 Y135.7600 E0.2899
G1 X118.9788 E0.0148
G1 X126.2600 Y128.4788 E0.2690
G1 Y129.0445 E0.0148
G1 X119.5445 Y135.7600 E0.2481
G1 X120.1102 E0.0148
G1 X126.2600 Y129.6102 E0.2272
G1 Y130.1758 E0.0148
G1 X120.6758 Y135.7600 E0.2063
G1 X121.2415 E0.0148
G1 X126.2600 Y130.7415 E0.1854
G1 Y131.3072 E0.0148
G1 X121.8072 Y135.7600 E0.1645
G1 X122.3729 E0.0148
G1 X126.2600 Y131.8729 E0.1436
G1 Y132.4386 E0.0148
G1 X122.9386 Y135.7600 E0.1227
G1 X123.5043 E0.0148
G1 X126.2600 Y133.0043 E0.1018
G1 Y133.5700 E0.0148
G1 X124.0700 Y135.7600 E0.0809
G1 X124.6356 E0.0148
G1 X126.2600 Y134.1356 E0.0600
G1 Y134.7013 E0.0148
G1 X125.2013 Y135.7600 E0.0391
G1 X126.0135 Y135.5135 E0.0222
G1 E-1.0000 F1800 ; e-retract 1
G1 Z0.6500 F12000 ; z-hop start
; feature shells
G1 E-1 F3600
; --- toolchange to T0 ---
M104 T0 S215
T0
M109 T0 S215
G92 E0
G1 X128.7000 Y136.8000
G1 Z0.4500 ; z-hop end
G1 E1.0000 F1800 ; e-engage 1
G4 P5
G1 X146.3000 E0.4598 F2975
G1 Y119.2000 E0.4598
G1 X128.7000 E0.4598
G1 Y136.8000 E0.4598
G1 X129.1000 Y136.4000 F12000
G1 X145.9000 E0.4389 F4858
G1 Y119.6000 E0.4389
G1 X129.1000 E0.4389
G1 Y136.4000 E0.4389
G1 X129.5000 Y136.0000 F12000
G1 X145.5000 E0.4180 F4630
G1 Y120.0000 E0.4180
G1 X129.5000 E0.4180
G1 Y136.0000 E0.4180
G1 E-1.0000 F1800 ; e-retract 1
G1 Z0.6500 F12000 ; z-hop start
; feature solid fill
G1 X131.3057 Y119.2400
G1 X130.3057 Y120.2400
G1 Z0.4500 ; z-hop end
G1 E1.0000 F1800 ; e-engage 1
G4 P5
G1 X129.7400 Y120.8057 E0.0209 F7200
G1 Y121.3714 E0.0148
G1 X130.8714 Y120.2400 E0.0418
G1 X131.4371 E0.0148
G1 X129.7400 Y121.9371 E0.0627
G1 Y122.5027 E0.0148
G1 X132.0027 Y120.2400 E0.0836
G1 X132.5684 E0.0148
G1 X129.7400 Y123.0684 E0.1045
G1 Y123.6341 E0.0148
G1 X133.1341 Y120.2400 E0.1254
G1 X133.6998 E0.0148
G1 X129.7400 Y124.1998 E0.1463
G1 Y124.7655 E0.0148
G1 X134.2655 Y120.2400 E0.1672
G1 X134.8312 E0.0148
G1 X129.7400 Y125.3312 E0.1881
G1 Y125.8969 E0.0148
G1 X135.3969 Y120.2400 E0.2090
G1 X135.9625 E0.0148
G1 X129.7400 Y126.4625 E0.2299
G1 Y127.0282 E0.0148
G1 X136.5282 Y120.2400 E0.2508
G1 X137.0939 E0.0148
G1 X129.7400 Y127.5939 E0.2717
G1 Y128.1596 E0.0148
G1 X137.6596 Y120.2400 E0.2926
G1 X138.2253 E0.0148
G1 X129.7400 Y128.7253 E0.3135
G1 Y129.2910 E0.0148
G1 X138.7910 Y120.2400 E0.3344
G1 X139.3567 E0.0148
G1 X129.7400 Y129.8567 E0.3553
G1 Y130.4223 E0.0148
G1 X139.9223 Y120.2400 E0.3762
G1 X140.4880 E0.0148
G1 X129.7400 Y130.9880 E0.3971
G1 Y131.5537 E0.0148
G1 X141.0537 Y120.2400 E0.4180
G1 X141.6194 E0.0148
G1 X129.7400 Y132.1194 E0.4389
G1 Y132.6851 E0.0148
G1 X142.1851 Y120.2400 E0.4598
G1 X142.7508 E0.0148
G1 X129.7400 Y133.2508 E0.4807
G1 Y133.8165 E0.0148
G1 X143.3165 Y120.2400 E0.5016
G1 X143.8821 E0.0148
G1 X129.7400 Y134.3821 E0.5224
G1 Y134.9478 E0.0148
G1 X144.4478 Y120.2400 E0.5433
G1 X145.0135 E0.0148
G1 X129.7400 Y135.5135 E0.5642
G1 X130.0592 Y135.7600 E0.0105
G1 X145.2600 Y120.5592 E0.5616
G1 Y121.1249 E0.0148
G1 X130.6249 Y135.7600 E0.5407
G1 X131.1906 E0.0148
G1 X145.2600 Y121.6906 E0.5198
G1 Y122.2562 E0.0148
G1 X131.7563 Y135.7600 E0.4989
G1 X132.3219 E0.0148
G1 X145.2600 Y122.8219 E0.4780
G1 Y123.3876 E0.0148
G1 X132.8876 Y135.7600 E0.4571
G1 X133.4533 E0.0148
G1 X145.2600 Y123.9533 E0.4362
G1 Y124.5190 E0.0148
G1 X134.0190 Y135.7600 E0.4153
G1 X134.5847 E0.0148
G1 X145.2600 Y125.0847 E0.3944
G1 Y125.6504 E0.0148
G1 X135.1504 Y135.7600 E0.3735
G1 X135.7161 E0.0148
G1 X145.2600 Y126.2160 E0.3526
G1 Y126.7817 E0.0148
G1 X136.2817 Y135.7600 E0.3317
G1 X136.8474 E0.0148
G1 X145.2600 Y127.3474 E0.3108
G1 Y127.9131 E0.0148
G1 X137.4131 Y135.7600 E0.2899
G1 X137.9788 E0.0148
G1 X145.2600 Y128.4788 E0.2690
G1 Y129.0445 E0.0148
G1 X138.5445 Y135.7600 E0.2481
G1 X139.1102 E0.0148
G1 X145.2600 Y129.6102 E0.2272
G1 Y130.1758 E0.0148
G1 X139.6758 Y135.7600 E0.2063
G1 X140.2415 E0.0148
G1 X145.2600 Y130.7415 E0.1854
G1 Y131.3072 E0.0148
G1 X140.8072 Y135.7600 E0.1645
G1 X141.3729 E0.0148
G1 X145.2600 Y131.8729 E0.1436
G1 Y132.4386 E0.0148
G1 X141.9386 Y135.7600 E0.1227
G1 X142.5043 E0.0148
G1 X145.2600 Y133.0043 E0.1018
G1 Y133.5700 E0.0148
G1 X143.0700 Y135.7600 E0.0809
G1 X143.6356 E0.0148
G1 X145.2600 Y134.1356 E0.0600
G1 Y134.7013 E0.0148
G1 X144.2013 Y135.7600 E0.0391
G1 X145.0135 Y135.5135 E0.0222
G1 E-1.0000 F1800 ; e-retract 1
G1 Z0.6500 F12000 ; z-hop start
;LAYER_CHANGE 2 of 24
SET_VELOCITY_LIMIT ACCEL=10000
G1 Z0.6500
; feature shells
G1 X146.3000 Y136.8000
G1 E1.0000 F1800 ; e-engage 1
G4 P5
G1 Y119.2000 E0.4598 F2975
G1 X128.7000 E0.4598
G1 Y136.8000 E0.4598
G1 X146.3000 E0.4598
G1 X145.9000 Y136.4000 F12000
G1 Y119.6000 E0.4389 F4858
G1 X129.1000 E0.4389
G1 Y136.4000 E0.4389
G1 X145.9000 E0.4389
G1 X145.5000 Y136.0000 F12000
G1 Y120.0000 E0.4180 F4630
G1 X129.5000 E0.4180
G1 Y136.0000 E0.4180
G1 X145.5000 E0.4180
G1 E-1.0000 F1800 ; e-retract 1
G1 Z0.8500 F12000 ; z-hop start
; feature solid fill
G1 X146.2600 Y119.8057
G1 X145.2600 Y120.8057
G1 Z0.6500 ; z-hop end
G1 E1.0000 F1800 ; e-engage 1
G4 P5
G1 X144.6943 Y120.2400 E0.0209 F7200
G1 X144.1286 E0.0148
G1 X145.2600 Y121.3714 E0.0418
G1 Y121.9371 E0.0148
G1 X143.5629 Y120.2400 E0.0627
G1 X142.9973 E0.0148
G1 X145.2600 Y122.5027 E0.0836
G1 Y123.0684 E0.0148
G1 X142.4316 Y120.2400 E0.1045
G1 X141.8659 E0.0148
G1 X145.2600 Y123.6341 E0.1254
G1 Y124.1998 E0.0148
G1 X141.3002 Y120.2400 E0.1463
G1 X140.7345 E0.0148
G1 X145.2600 Y124.7655 E0.1672
G1 Y125.3312 E0.0148
G1 X140.1688 Y120.2400 E0.1881
G1 X139.6031 E0.0148
G1 X145.2600 Y125.8969 E0.2090
G1 Y126.4625 E0.0148
G1 X139.0375 Y120.2400 E0.2299
G1 X138.4718 E0.0148
G1 X145.2600 Y127.0282 E0.2508
G1 Y127.5939 E0.0148
G1 X137.9061 Y120.2400 E0.2717
G1 X137.3404 E0.0148
G1 X145.2600 Y128.1596 E0.2926
G1 Y128.7253 E0.0148
G1 X136.7747 Y120.2400 E0.3135
G1 X136.2090 E0.0148
G1 X145.2600 Y129.2910 E0.3344
G1 Y129.8567 E0.0148
G1 X135.6433 Y120.2400 E0.3553
G1 X135.0777 E0.0148
G1 X145.2600 Y130.4223 E0.3762
G1 Y130.9880 E0.0148
G1 X134.5120 Y120.2400 E0.3971
G1 X133.9463 E0.0148
G1 X145.2600 Y131.5537 E0.4180
G1 Y132.1194 E0.0148
G1 X133.3806 Y120.2400 E0.4389
G1 X132.8149 E0.0148
G1 X145.2600 Y132.6851 E0.4598
G1 Y133.2508 E0.0148
G1 X132.2492 Y120.2400 E0.4807
G1 X131.6835 E0.0148
G1 X145.2600 Y133.8165 E0.5016
G1 Y134.3821 E0.0148
G1 X131.1179 Y120.2400 E0.5224
G1 X130.5522 E0.0148
G1 X145.2600 Y134.9478 E0.5433
G1 Y135.5135 E0.0148
G1 X129.9865 Y120.2400 E0.5642
G1 X129.7400 Y120.5592 E0.0105
G1 X144.9408 Y135.7600 E0.5616
G1 X144.3751 E0.0148
G1 X129.7400 Y121.1249 E0.5407
G1 Y121.6906 E0.0148
G1 X143.8094 Y135.7600 E0.5198
G1 X143.2437 E0.0148
G1 X129.7400 Y122.2562 E0.4989
G1 Y122.8219 E0.0148
G1 X142.6781 Y135.7600 E0.4780
G1 X142.1124 E0.0148
G1 X129.7400 Y123.3876 E0.4571
G1 Y123.9533 E0.0148
G1 X141.5467 Y135.7600 E0.4362
G1 X140.9810 E0.0148
G1 X129.7400 Y124.5190 E0.4153
G1 Y125.0847 E0.0148
G1 X140.4153 Y135.7600 E0.3944
G1 X139.8496 E0.0148
G1 X129.7400 Y125.6504 E0.3735
G1 Y126.2160 E0.0148
G1 X139.2839 Y135.7600 E0.3526
G1 X138.7183 E0.0148
G1 X129.7400 Y126.7817 E0.3317
G1 Y127.3474 E0.0148
G1 X138.1526 Y135.7600 E0.3108
G1 X137.5869 E0.0148
G1 X129.7400 Y127.9131 E0.2899
G1 Y128.4788 E0.0148
G1 X137.0212 Y135.7600 E0.2690
G1 X136.4555 E0.0148
G1 X129.7400 Y129.0445 E0.2481
G1 Y129.6102 E0.0148
G1 X135.8898 Y135.7600 E0.2272
G1 X135.3242 E0.0148
G1 X129.7400 Y130.1758 E0.2063
G1 Y130.7415 E0.0148
G1 X134.7585 Y135.7600 E0.1854
G1 X134.1928 E0.0148
G1 X129.7400 Y131.3072 E0.1645
G1 Y131.8729 E0.0148
G1 X133.6271 Y135.7600 E0.1436
G1 X133.0614 E0.0148
G1 X129.7400 Y132.4386 E0.1227
G1 Y133.0043 E0.0148
G1 X132.4957 Y135.7600 E0.1018
G1 X131.9300 E0.0148
G1 X129.7400 Y133.5700 E0.0809
G1 Y134.1356 E0.0148
G1 X131.3644 Y135.7600 E0.0600
G1 X130.7987 E0.0148
G1 X129.7400 Y134.7013 E0.0391
G1 X129.9865 Y135.5135 E0.0222
G1 E-1.0000 F1800 ; e-retract 1
G1 Z0.8500 F12000 ; z-hop start
; feature shells
G1 E-1 F3600
; --- toolchange to T2 ---
M104 T2 S215
T2
M109 T2 S215
G92 E0
G1 X127.3000 Y136.8000
G1 Z0.6500 ; z-hop end
G1 E1.0000 F1800 ; e-engage 1
G4 P5
G1 Y119.2000 E0.4598 F2975
G1 X109.7000 E0.4598
G1 Y136.8000 E0.4598
G1 X127.3000 E0.4598
G1 X126.9000 Y136.4000 F12000
G1 Y119.6000 E0.4389 F4858
G1 X110.1000 E0.4389
G1 Y136.4000 E0.4389
G1 X126.9000 E0.4389
G1 X126.5000 Y136.0000 F12000
G1 Y120.0000 E0.4180 F4630
G1 X110.5000 E0.4180
G1 Y136.0000 E0.4180
G1 X126.5000 E0.4180
G1 E-1.0000 F1800 ; e-retract 1
G1 Z0.8500 F12000 ; z-hop start
; feature solid fill
G1 X127.2600 Y119.8057
G1 X126.2600 Y120.8057
G1 Z0.6500 ; z-hop end
G1 E1.0000 F1800 ; e-engage 1
G4 P5
G1 X125.6943 Y120.2400 E0.0209 F7200
G1 X125.1286 E0.0148
G1 X126.2600 Y121.3714 E0.0418
G1 Y121.9371 E0.0148
G1 X124.5629 Y120.2400 E0.0627
G1 X123.9973 E0.0148
G1 X126.2600 Y122.5027 E0.0836
G1 Y123.0684 E0.0148
G1 X123.4316 Y120.2400 E0.1045
G1 X122.8659 E0.0148
G1 X126.2600 Y123.6341 E0.1254
G1 Y124.1998 E0.0148
G1 X122.3002 Y120.2400 E0.1463
G1 X121.7345 E0.0148
G1 X126.2600 Y124.7655 E0.1672
G1 Y125.3312 E0.0148
G1 X121.1688 Y120.2400 E0.1881
G1 X120.6031 E0.0148
G1 X126.2600 Y125.8969 E0.2090
G1 Y126.4625 E0.0148
G1 X120.0375 Y120.2400 E0.2299
G1 X119.4718 E0.0148
G1 X126.2600 Y127.0282 E0.2508
G1 Y127.5939 E0.0148
G1 X118.9061 Y120.2400 E0.2717
G1 X118.3404 E0.0148
G1 X126.2600 Y128.1596 E0.2926
G1 Y128.7253 E0.0148
G1 X117.7747 Y120.2400 E0.3135
G1 X117.2090 E0.0148
G1 X126.2600 Y129.2910 E0.3344
G1 Y129.8567 E0.0148
G1 X116.6433 Y120.2400 E0.3553
G1 X116.0777 E0.0148
G1 X126.2600 Y130.4223 E0.3762
G1 Y130.9880 E0.0148
G1 X115.5120 Y120.2400 E0.3971
G1 X114.9463 E0.0148
G1 X126.2600 Y131.5537 E0.4180
G1 Y132.1194 E0.0148
G1 X114.3806 Y120.2400 E0.4389
G1 X113.8149 E0.0148
G1 X126.2600 Y132.6851 E0.4598
G1 Y133.2508 E0.0148
G1 X113.2492 Y120.2400 E0.4807
G1 X112.6835 E0.0148
G1 X126.2600 Y133.8165 E0.5016
G1 Y134.3821 E0.0148
G1 X112.1179 Y120.2400 E0.5224
G1 X111.5522 E0.0148
G1 X126.2600 Y134.9478 E0.5433
G1 Y135.5135 E0.0148
G1 X110.9865 Y120.2400 E0.5642
G1 X110.7400 Y120.5592 E0.0105
G1 X125.9408 Y135.7600 E0.5616
G1 X125.3751 E0.0148
G1 X110.7400 Y121.1249 E0.5407
G1 Y121.6906 E0.0148
G1 X124.8094 Y135.7600 E0.5198
G1 X124.2437 E0.0148
G1 X110.7400 Y122.2562 E0.4989
G1 Y122.8219 E0.0148
G1 X123.6781 Y135.7600 E0.4780
G1 X123.1124 E0.0148
G1 X110.7400 Y123.3876 E0.4571
G1 Y123.9533 E0.0148
G1 X122.5467 Y135.7600 E0.4362
G1 X121.9810 E0.0148
G1 X110.7400 Y124.5190 E0.4153
G1 Y125.0847 E0.0148
G1 X121.4153 Y135.7600 E0.3944
G1 X120.8496 E0.0148
G1 X110.7400 Y125.6504 E0.3735
G1 Y126.2160 E0.0148
G1 X120.2839 Y135.7600 E0.3526
G1 X119.7183 E0.0148
G1 X110.7400 Y126.7817 E0.3317
G1 Y127.3474 E0.0148
G1 X119.1526 Y135.7600 E0.3108
G1 X118.5869 E0.0148
G1 X110.7400 Y127.9131 E0.2899
G1 Y128.4788 E0.0148
G1 X118.0212 Y135.7600 E0.2690
G1 X117.4555 E0.0148
G1 X110.7400 Y129.0445 E0.2481
G1 Y129.6102 E0.0148
G1 X116.8898 Y135.7600 E0.2272
G1 X116.3242 E0.0148
G1 X110.7400 Y130.1758 E0.2063
G1 Y130.7415 E0.0148
G1 X115.7585 Y135.7600 E0.1854
G1 X115.1928 E0.0148
G1 X110.7400 Y131.3072 E0.1645
G1 Y131.8729 E0.0148
G1 X114.6271 Y135.7600 E0.1436
G1 X114.0614 E0.0148
G1 X110.7400 Y132.4386 E0.1227
G1 Y133.0043 E0.0148
G1 X113.4957 Y135.7600 E0.1018
G1 X112.9300 E0.0148
G1 X110.7400 Y133.5700 E0.0809
G1 Y134.1356 E0.0148
G1 X112.3644 Y135.7600 E0.0600
G1 X111.7987 E0.0148
G1 X110.7400 Y134.7013 E0.0391
G1 X110.9865 Y135.5135 E0.0222
G1 E-1.0000 F1800 ; e-retract 1
G1 Z0.8500 F12000 ; z-hop start
;LAYER_CHANGE 3 of 24
SET_VELOCITY_LIMIT ACCEL=10000
G1 Z0.8500
; feature shells
G1 X109.7000 Y136.8000
G1 E1.0000 F1800 ; e-engage 1
G4 P5
G1 X127.3000 E0.4598 F2975
G1 Y119.2000 E0.4598
G1 X109.7000 E0.4598
G1 Y136.8000 E0.4598
G1 X110.1000 Y136.4000 F12000
G1 X126.9000 E0.4389 F4858
G1 Y119.6000 E0.4389
G1 X110.1000 E0.4389
G1 Y136.4000 E0.4389
G1 X110.5000 Y136.0000 F12000
G1 X126.5000 E0.4180 F4630
G1 Y120.0000 E0.4180
G1 X110.5000 E0.4180
G1 Y136.0000 E0.4180
; feature sparse infill
G1 X112.5000 Y135.7600 F12000
G1 Y120.2400 E0.4054 F7200
G1 X115.5000 F12000
G1 Y135.7600 E0.4054 F7200
G1 X118.5000 F12000
G1 Y120.2400 E0.4054 F7200
G1 X121.5000 F12000
G1 Y135.7600 E0.4054 F7200
G1 X124.5000 F12000
G1 Y120.2400 E0.4054 F7200
G1 E-1.0000 F1800 ; e-retract 1
G1 Z1.0500 F12000 ; z-hop start
; feature shells
G1 E-1 F3600
; --- toolchange to T0 ---
M104 T0 S215
T0
M109 T0 S215
G92 E0
G1 X128.7000 Y119.2000
G1 Z0.8500 ; z-hop end
G1 E1.0000 F1800 ; e-engage 1
G4 P5
G1 Y136.8000 E0.4598 F2975
G1 X146.3000 E0.4598
G1 Y119.2000 E0.4598
G1 X128.7000 E0.4598
G1 X129.1000 Y119.6000 F12000
G1 Y136.4000 E0.4389 F4858
G1 X145.9000 E0.4389
G1 Y119.6000 E0.4389
G1 X129.1000 E0.4389
G1 X129.5000 Y120.0000 F12000
G1 Y136.0000 E0.4180 F4630
G1 X145.5000 E0.4180
G1 Y120.0000 E0.4180
G1 X129.5000 E0.4180
; feature sparse infill
G1 X131.5000 Y120.2400 F12000
G1 Y135.7600 E0.4054 F7200
G1 X134.5000 F12000
G1 Y120.2400 E0.4054 F7200
G1 X137.5000 F12000
G1 Y135.7600 E0.4054 F7200
G1 X140.5000 F12000
G1 Y120.2400 E0.4054 F7200
G1 X143.5000 F12000
G1 Y135.7600 E0.4054 F7200
G1 E-1.0000 F1800 ; e-retract 1
G1 Z1.0500 F12000 ; z-hop start
;LAYER_CHANGE 4 of 24
SET_VELOCITY_LIMIT ACCEL=10000
; feature shells
G1 X146.3000 Y136.8000
G1 E1.0000 F1800 ; e-engage 1
G4 P5
G1 Y119.2000 E0.4598 F2975
G1 X128.7000 E0.4598
G1 Y136.8000 E0.4598
G1 X146.3000 E0.4598
G1 X145.9000 Y136.4000 F12000
G1 Y119.6000 E0.4389 F4858
G1 X129.1000 E0.4389
G1 Y136.4000 E0.4389
G1 X145.9000 E0.4389
G1 X145.5000 Y136.0000 F12000
G1 Y120.0000 E0.4180 F4630
G1 X129.5000 E0.4180
G1 Y136.0000 E0.4180
G1 X145.5000 E0.4180
; feature sparse infill
G1 X145.2600 Y134.0000 F12000
G1 X129.7400 E0.4054 F7200
G1 Y131.0000 F12000
G1 X145.2600 E0.4054 F7200
G1 Y128.0000 F12000
G1 X129.7400 E0.4054 F7200
G1 Y125.0000 F12000
G1 X145.2600 E0.4054 F7200
G1 Y122.0000 F12000
G1 X129.7400 E0.4054 F7200
G1 E-1.0000 F1800 ; e-retract 1
G1 Z1.2500 F12000 ; z-hop start
; feature shells
G1 E-1 F3600
; --- toolchange to T2 ---
M104 T2 S215
T2
M109 T2 S215
G92 E0
G1 X127.3000 Y119.2000
G1 Z1.0500 ; z-hop end
G1 E1.0000 F1800 ; e-engage 1
G4 P5
G1 X109.7000 E0.4598 F2975
G1 Y136.8000 E0.4598
G1 X127.3000 E0.4598
G1 Y119.2000 E0.4598
G1 X126.9000 Y119.6000 F12000
G1 X110.1000 E0.4389 F4858
G1 Y136.4000 E0.4389
G1 X126.9000 E0.4389
G1 Y119.6000 E0.4389
G1 X126.5000 Y120.0000 F12000
G1 X110.5000 E0.4180 F4630
G1 Y136.0000 E0.4180
G1 X126.5000 E0.4180
G1 Y120.0000 E0.4180
; feature sparse infill
G1 X126.2600 Y122.0000 F12000
G1 X110.7400 E0.4054 F7200
G1 Y125.0000 F12000
G1 X126.2600 E0.4054 F7200
G1 Y128.0000 F12000
G1 X110.7400 E0.4054 F7200
G1 Y131.0000 F12000
G1 X126.2600 E0.4054 F7200
G1 Y134.0000 F12000
G1 X110.7400 E0.4054 F7200
G1 E-1.0000 F1800 ; e-retract 1
G1 Z1.2500 F12000 ; z-hop start
;LAYER_CHANGE 5 of 24
SET_VELOCITY_LIMIT ACCEL=10000
; feature shells
G1 X109.7000 Y136.8000
G1 E1.0000 F1800 ; e-engage 1
G4 P5
G1 X127.3000 E0.4598 F2975
G1 Y119.2000 E0.4598
G1 X109.7000 E0.4598
G1 Y136.8000 E0.4598
G1 X110.1000 Y136.4000 F12000
G1 X126.9000 E0.4389 F4858
G1 Y119.6000 E0.4389
G1 X110.1000 E0.4389
G1 Y136.4000 E0.4389
G1 X110.5000 Y136.0000 F12000
G1 X126.5000 E0.4180 F4630
G1 Y120.0000 E0.4180
G1 X110.5000 E0.4180
G1 Y136.0000 E0.4180
; feature sparse infill
G1 X112.5000 Y135.7600 F12000
G1 Y120.2400 E0.4054 F7200
G1 X115.5000 F12000
G1 Y135.7600 E0.4054 F7200
G1 X118.5000 F12000
G1 Y120.2400 E0.4054 F7200
G1 X121.5000 F12000
G1 Y135.7600 E0.4054 F7200
G1 X124.5000 F12000
G1 Y120.2400 E0.4054 F7200
G1 E-1.0000 F1800 ; e-retract 1
G1 Z1.4500 F12000 ; z-hop start
; feature shells
G1 E-1 F3600
; --- toolchange to T0 ---
M104 T0 S215
T0
M109 T0 S215
G92 E0
G1 X128.7000 Y119.2000
G1 Z1.2500 ; z-hop end
G1 E1.0000 F1800 ; e-engage 1
G4 P5
G1 Y136.8000 E0.4598 F2975
G1 X146.3000 E0.4598
G1 Y119.2000 E0.4598
G1 X128.7000 E0.4598
G1 X129.1000 Y119.6000 F12000
G1 Y136.4000 E0.4389 F4858
G1 X145.9000 E0.4389
G1 Y119.6000 E0.4389
G1 X129.1000 E0.4389
G1 X129.5000 Y120.0000 F12000
G1 Y136.0000 E0.4180 F4630
G1 X145.5000 E0.4180
G1 Y120.0000 E0.4180
G1 X129.5000 E0.4180
; feature sparse infill
G1 X131.5000 Y120.2400 F12000
G1 Y135.7600 E0.4054 F7200
G1 X134.5000 F12000
G1 Y120.2400 E0.4054 F7200
G1 X137.5000 F12000
G1 Y135.7600 E0.4054 F7200
G1 X140.5000 F12000
G1 Y120.2400 E0.4054 F7200
G1 X143.5000 F12000
G1 Y135.7600 E0.4054 F7200
G1 E-1.0000 F1800 ; e-retract 1
G1 Z1.4500 F12000 ; z-hop start
;LAYER_CHANGE 6 of 24
SET_VELOCITY_LIMIT ACCEL=10000
G1 Z1.4500
; feature shells
G1 X146.3000 Y136.8000
G1 E1.0000 F1800 ; e-engage 1
G4 P5
G1 Y119.2000 E0.4598 F2975
G1 X128.7000 E0.4598
G1 Y136.8000 E0.4598
G1 X146.3000 E0.4598
G1 X145.9000 Y136.4000 F12000
G1 Y119.6000 E0.4389 F4858
G1 X129.1000 E0.4389
G1 Y136.4000 E0.4389
G1 X145.9000 E0.4389
G1 X145.5000 Y136.0000 F12000
G1 Y120.0000 E0.4180 F4630
G1 X129.5000 E0.4180
G1 Y136.0000 E0.4180
G1 X145.5000 E0.4180
; feature sparse infill
G1 X145.2600 Y134.0000 F12000
G1 X129.7400 E0.4054 F7200
G1 Y131.0000 F12000
G1 X145.2600 E0.4054 F7200
G1 Y128.0000 F12000
G1 X129.7400 E0.4054 F7200
G1 Y125.0000 F12000
G1 X145.2600 E0.4054 F7200
G1 Y122.0000 F12000
G1 X129.7400 E0.4054 F7200
G1 E-1.0000 F1800 ; e-retract 1
G1 Z1.6500 F12000 ; z-hop start
; feature shells
G1 E-1 F3600
; --- toolchange to T2 ---
M104 T2 S215
T2
M109 T2 S215
G92 E0
G1 X127.3000 Y119.2000
G1 Z1.4500 ; z-hop end
G1 E1.0000 F1800 ; e-engage 1
G4 P5
G1 X109.7000 E0.4598 F2975
G1 Y136.8000 E0.4598
G1 X127.3000 E0.4598
G1 Y119.2000 E0.4598
G1 X126.9000 Y119.6000 F12000
G1 X110.1000 E0.4389 F4858
G1 Y136.4000 E0.4389
G1 X126.9000 E0.4389
G1 Y119.6000 E0.4389
G1 X126.5000 Y120.0000 F12000
G1 X110.5000 E0.4180 F4630
G1 Y136.0000 E0.4180
G1 X126.5000 E0.4180
G1 Y120.0000 E0.4180
; feature sparse infill
G1 X126.2600 Y122.0000 F12000
G1 X110.7400 E0.4054 F7200
G1 Y125.0000 F12000
G1 X126.2600 E0.4054 F7200
G1 Y128.0000 F12000
G1 X110.7400 E0.4054 F7200
G1 Y131.0000 F12000
G1 X126.2600 E0.4054 F7200
G1 Y134.0000 F12000
G1 X110.7400 E0.4054 F7200
G1 E-1.0000 F1800 ; e-retract 1
G1 Z1.6500 F12000 ; z-hop start
;LAYER_CHANGE 7 of 24
SET_VELOCITY_LIMIT ACCEL=10000
; feature shells
G1 X109.7000 Y136.8000
G1 E1.0000 F1800 ; e-engage 1
G4 P5
G1 X127.3000 E0.4598 F2975
G1 Y119.2000 E0.4598
G1 X109.7000 E0.4598
G1 Y136.8000 E0.4598
G1 X110.1000 Y136.4000 F12000
G1 X126.9000 E0.4389 F4858
G1 Y119.6000 E0.4389
G1 X110.1000 E0.4389
G1 Y136.4000 E0.4389
G1 X110.5000 Y136.0000 F12000
G1 X126.5000 E0.4180 F4630
G1 Y120.0000 E0.4180
G1 X110.5000 E0.4180
G1 Y136.0000 E0.4180
; feature sparse infill
G1 X112.5000 Y135.7600 F12000
G1 Y120.2400 E0.4054 F7200
G1 X115.5000 F12000
G1 Y135.7600 E0.4054 F7200
G1 X118.5000 F12000
G1 Y120.2400 E0.4054 F7200
G1 X121.5000 F12000
G1 Y135.7600 E0.4054 F7200
G1 X124.5000 F12000
G1 Y120.2400 E0.4054 F7200
G1 E-1.0000 F1800 ; e-retract 1
G1 Z1.8500 F12000 ; z-hop start
; feature shells
G1 E-1 F3600
; --- toolchange to T0 ---
M104 T0 S215
T0
M109 T0 S215
G92 E0
G1 X128.7000 Y119.2000
G1 Z1.6500 ; z-hop end
G1 E1.0000 F1800 ; e-engage 1
G4 P5
G1 Y136.8000 E0.4598 F2975
G1 X146.3000 E0.4598
G1 Y119.2000 E0.4598
G1 X128.7000 E0.4598
G1 X129.1000 Y119.6000 F12000
G1 Y136.4000 E0.4389 F4858
G1 X145.9000 E0.4389
G1 Y119.6000 E0.4389
G1 X129.1000 E0.4389
G1 X129.5000 Y120.0000 F12000
G1 Y136.0000 E0.4180 F4630
G1 X145.5000 E0.4180
G1 Y120.0000 E0.4180
G1 X129.5000 E0.4180
; feature sparse infill
G1 X131.5000 Y120.2400 F12000
G1 Y135.7600 E0.4054 F7200
G1 X134.5000 F12000
G1 Y120.2400 E0.4054 F7200
G1 X137.5000 F12000
G1 Y135.7600 E0.4054 F7200
G1 X140.5000 F12000
G1 Y120.2400 E0.4054 F7200
G1 X143.5000 F12000
G1 Y135.7600 E0.4054 F7200
G1 E-1.0000 F1800 ; e-retract 1
G1 Z1.8500 F12000 ; z-hop start
;LAYER_CHANGE 8 of 24
SET_VELOCITY_LIMIT ACCEL=10000
; feature shells
G1 X146.3000 Y136.8000
G1 E1.0000 F1800 ; e-engage 1
G4 P5
G1 Y119.2000 E0.4598 F2975
G1 X128.7000 E0.4598
G1 Y136.8000 E0.4598
G1 X146.3000 E0.4598
G1 X145.9000 Y136.4000 F12000
G1 Y119.6000 E0.4389 F4858
G1 X129.1000 E0.4389
G1 Y136.4000 E0.4389
G1 X145.9000 E0.4389
G1 X145.5000 Y136.0000 F12000
G1 Y120.0000 E0.4180 F4630
G1 X129.5000 E0.4180
G1 Y136.0000 E0.4180
G1 X145.5000 E0.4180
; feature sparse infill
G1 X145.2600 Y134.0000 F12000
G1 X129.7400 E0.4054 F7200
G1 Y131.0000 F12000
G1 X145.2600 E0.4054 F7200
G1 Y128.0000 F12000
G1 X129.7400 E0.4054 F7200
G1 Y125.0000 F12000
G1 X145.2600 E0.4054 F7200
G1 Y122.0000 F12000
G1 X129.7400 E0.4054 F7200
G1 E-1.0000 F1800 ; e-retract 1
G1 Z2.0500 F12000 ; z-hop start
; feature shells
G1 E-1 F3600
; --- toolchange to T2 ---
M104 T2 S215
T2
M109 T2 S215
G92 E0
G1 X127.3000 Y119.2000
G1 Z1.8500 ; z-hop end
G1 E1.0000 F1800 ; e-engage 1
G4 P5
G1 X109.7000 E0.4598 F2975
G1 Y136.8000 E0.4598
G1 X127.3000 E0.4598
G1 Y119.2000 E0.4598
G1 X126.9000 Y119.6000 F12000
G1 X110.1000 E0.4389 F4858
G1 Y136.4000 E0.4389
G1 X126.9000 E0.4389
G1 Y119.6000 E0.4389
G1 X126.5000 Y120.0000 F12000
G1 X110.5000 E0.4180 F4630
G1 Y136.0000 E0.4180
G1 X126.5000 E0.4180
G1 Y120.0000 E0.4180
; feature sparse infill
G1 X126.2600 Y122.0000 F12000
G1 X110.7400 E0.4054 F7200
G1 Y125.0000 F12000
G1 X126.2600 E0.4054 F7200
G1 Y128.0000 F12000
G1 X110.7400 E0.4054 F7200
G1 Y131.0000 F12000
G1 X126.2600 E0.4054 F7200
G1 Y134.0000 F12000
G1 X110.7400 E0.4054 F7200
G1 E-1.0000 F1800 ; e-retract 1
G1 Z2.0500 F12000 ; z-hop start
;LAYER_CHANGE 9 of 24
SET_VELOCITY_LIMIT ACCEL=10000
G1 Z2.0500
; feature shells
G1 X109.7000 Y136.8000
G1 E1.0000 F1800 ; e-engage 1
G4 P5
G1 X127.3000 E0.4598 F2975
G1 Y119.2000 E0.4598
G1 X109.7000 E0.4598
G1 Y136.8000 E0.4598
G1 X110.1000 Y136.4000 F12000
G1 X126.9000 E0.4389 F4858
G1 Y119.6000 E0.4389
G1 X110.1000 E0.4389
G1 Y136.4000 E0.4389
G1 X110.5000 Y136.0000 F12000
G1 X126.5000 E0.4180 F4630
G1 Y120.0000 E0.4180
G1 X110.5000 E0.4180
G1 Y136.0000 E0.4180
; feature sparse infill
G1 X112.5000 Y135.7600 F12000
G1 Y120.2400 E0.4054 F7200
G1 X115.5000 F12000
G1 Y135.7600 E0.4054 F7200
G1 X118.5000 F12000
G1 Y120.2400 E0.4054 F7200
G1 X121.5000 F12000
G1 Y135.7600 E0.4054 F7200
G1 X124.5000 F12000
G1 Y120.2400 E0.4054 F7200
G1 E-1.0000 F1800 ; e-retract 1
G1 Z2.2500 F12000 ; z-hop start
; feature shells
G1 E-1 F3600
; --- toolchange to T0 ---
M104 T0 S215
T0
M109 T0 S215
G92 E0
G1 X128.7000 Y119.2000
G1 Z2.0500 ; z-hop end
G1 E1.0000 F1800 ; e-engage 1
G4 P5
G1 Y136.8000 E0.4598 F2975
G1 X146.3000 E0.4598
G1 Y119.2000 E0.4598
G1 X128.7000 E0.4598
G1 X129.1000 Y119.6000 F12000
G1 Y136.4000 E0.4389 F4858
G1 X145.9000 E0.4389
G1 Y119.6000 E0.4389
G1 X129.1000 E0.4389
G1 X129.5000 Y120.0000 F12000
G1 Y136.0000 E0.4180 F4630
G1 X145.5000 E0.4180
G1 Y120.0000 E0.4180
G1 X129.5000 E0.4180
; feature sparse infill
G1 X131.5000 Y120.2400 F12000
G1 Y135.7600 E0.4054 F7200
G1 X134.5000 F12000
G1 Y120.2400 E0.4054 F7200
G1 X137.5000 F12000
G1 Y135.7600 E0.4054 F7200
G1 X140.5000 F12000
G1 Y120.2400 E0.4054 F7200
G1 X143.5000 F12000
G1 Y135.7600 E0.4054 F7200
G1 E-1.0000 F1800 ; e-retract 1
G1 Z2.2500 F12000 ; z-hop start
;LAYER_CHANGE 10 of 24
SET_VELOCITY_LIMIT ACCEL=10000
; feature shells
G1 X146.3000 Y136.8000
G1 E1.0000 F1800 ; e-engage 1
G4 P5
G1 Y119.2000 E0.4598 F2975
G1 X128.7000 E0.4598
G1 Y136.8000 E0.4598
G1 X146.3000 E0.4598
G1 X145.9000 Y136.4000 F12000
G1 Y119.6000 E0.4389 F4858
G1 X129.1000 E0.4389
G1 Y136.4000 E0.4389
G1 X145.9000 E0.4389
G1 X145.5000 Y136.0000 F12000
G1 Y120.0000 E0.4180 F4630
G1 X129.5000 E0.4180
G1 Y136.0000 E0.4180
G1 X145.5000 E0.4180
; feature sparse infill
G1 X145.2600 Y134.0000 F12000
G1 X129.7400 E0.4054 F7200
G1 Y131.0000 F12000
G1 X145.2600 E0.4054 F7200
G1 Y128.0000 F12000
G1 X129.7400 E0.4054 F7200
G1 Y125.0000 F12000
G1 X145.2600 E0.4054 F7200
G1 Y122.0000 F12000
G1 X129.7400 E0.4054 F7200
G1 E-1.0000 F1800 ; e-retract 1
G1 Z2.4500 F12000 ; z-hop start
; feature shells
G1 E-1 F3600
; --- toolchange to T2 ---
M104 T2 S215
T2
M109 T2 S215
G92 E0
G1 X127.3000 Y119.2000
G1 Z2.2500 ; z-hop end
G1 E1.0000 F1800 ; e-engage 1
G4 P5
G1 X109.7000 E0.4598 F2975
G1 Y136.8000 E0.4598
G1 X127.3000 E0.4598
G1 Y119.2000 E0.4598
G1 X126.9000 Y119.6000 F12000
G1 X110.1000 E0.4389 F4858
G1 Y136.4000 E0.4389
G1 X126.9000 E0.4389
G1 Y119.6000 E0.4389
G1 X126.5000 Y120.0000 F12000
G1 X110.5000 E0.4180 F4630
G1 Y136.0000 E0.4180
G1 X126.5000 E0.4180
G1 Y120.0000 E0.4180
; feature sparse infill
G1 X126.2600 Y122.0000 F12000
G1 X110.7400 E0.4054 F7200
G1 Y125.0000 F12000
G1 X126.2600 E0.4054 F7200
G1 Y128.0000 F12000
G1 X110.7400 E0.4054 F7200
G1 Y131.0000 F12000
G1 X126.2600 E0.4054 F7200
G1 Y134.0000 F12000
G1 X110.7400 E0.4054 F7200
G1 E-1.0000 F1800 ; e-retract 1
G1 Z2.4500 F12000 ; z-hop start
;LAYER_CHANGE 11 of 24
SET_VELOCITY_LIMIT ACCEL=10000
; feature shells
G1 X109.7000 Y136.8000
G1 E1.0000 F1800 ; e-engage 1
G4 P5
G1 X127.3000 E0.4598 F2975
G1 Y119.2000 E0.4598
G1 X109.7000 E0.4598
G1 Y136.8000 E0.4598
G1 X110.1000 Y136.4000 F12000
G1 X126.9000 E0.4389 F4858
G1 Y119.6000 E0.4389
G1 X110.1000 E0.4389
G1 Y136.4000 E0.4389
G1 X110.5000 Y136.0000 F12000
G1 X126.5000 E0.4180 F4630
G1 Y120.0000 E0.4180
G1 X110.5000 E0.4180
G1 Y136.0000 E0.4180
; feature sparse infill
G1 X112.5000 Y135.7600 F12000
G1 Y120.2400 E0.4054 F7200
G1 X115.5000 F12000
G1 Y135.7600 E0.4054 F7200
G1 X118.5000 F12000
G1 Y120.2400 E0.4054 F7200
G1 X121.5000 F12000
G1 Y135.7600 E0.4054 F7200
G1 X124.5000 F12000
G1 Y120.2400 E0.4054 F7200
G1 E-1.0000 F1800 ; e-retract 1
G1 Z2.6500 F12000 ; z-hop start
; feature shells
G1 E-1 F3600
; --- toolchange to T0 ---
M104 T0 S215
T0
M109 T0 S215
G92 E0
G1 X128.7000 Y119.2000
G1 Z2.4500 ; z-hop end
G1 E1.0000 F1800 ; e-engage 1
G4 P5
G1 Y136.8000 E0.4598 F2975
G1 X146.3000 E0.4598
G1 Y119.2000 E0.4598
G1 X128.7000 E0.4598
G1 X129.1000 Y119.6000 F12000
G1 Y136.4000 E0.4389 F4858
G1 X145.9000 E0.4389
G1 Y119.6000 E0.4389
G1 X129.1000 E0.4389
G1 X129.5000 Y120.0000 F12000
G1 Y136.0000 E0.4180 F4630
G1 X145.5000 E0.4180
G1 Y120.0000 E0.4180
G1 X129.5000 E0.4180
; feature sparse infill
G1 X131.5000 Y120.2400 F12000
G1 Y135.7600 E0.4054 F7200
G1 X134.5000 F12000
G1 Y120.2400 E0.4054 F7200
G1 X137.5000 F12000
G1 Y135.7600 E0.4054 F7200
G1 X140.5000 F12000
G1 Y120.2400 E0.4054 F7200
G1 X143.5000 F12000
G1 Y135.7600 E0.4054 F7200
G1 E-1.0000 F1800 ; e-retract 1
G1 Z2.6500 F12000 ; z-hop start
;LAYER_CHANGE 12 of 24
SET_VELOCITY_LIMIT ACCEL=10000
G1 Z2.6500
; feature shells
G1 X146.3000 Y136.8000
G1 E1.0000 F1800 ; e-engage 1
G4 P5
G1 Y119.2000 E0.4598 F2975
G1 X128.7000 E0.4598
G1 Y136.8000 E0.4598
G1 X146.3000 E0.4598
G1 X145.9000 Y136.4000 F12000
G1 Y119.6000 E0.4389 F4858
G1 X129.1000 E0.4389
G1 Y136.4000 E0.4389
G1 X145.9000 E0.4389
G1 X145.5000 Y136.0000 F12000
G1 Y120.0000 E0.4180 F4630
G1 X129.5000 E0.4180
G1 Y136.0000 E0.4180
G1 X145.5000 E0.4180
; feature sparse infill
G1 X145.2600 Y134.0000 F12000
G1 X129.7400 E0.4054 F7200
G1 Y131.0000 F12000
G1 X145.2600 E0.4054 F7200
G1 Y128.0000 F12000
G1 X129.7400 E0.4054 F7200
G1 Y125.0000 F12000
G1 X145.2600 E0.4054 F7200
G1 Y122.0000 F12000
G1 X129.7400 E0.4054 F7200
G1 E-1.0000 F1800 ; e-retract 1
G1 Z2.8500 F12000 ; z-hop start
; feature shells
G1 E-1 F3600
; --- toolchange to T2 ---
M104 T2 S215
T2
M109 T2 S215
G92 E0
G1 X127.3000 Y119.2000
G1 Z2.6500 ; z-hop end
G1 E1.0000 F1800 ; e-engage 1
G4 P5
G1 X109.7000 E0.4598 F2975
G1 Y136.8000 E0.4598
G1 X127.3000 E0.4598
G1 Y119.2000 E0.4598
G1 X126.9000 Y119.6000 F12000
G1 X110.1000 E0.4389 F4858
G1 Y136.4000 E0.4389
G1 X126.9000 E0.4389
G1 Y119.6000 E0.4389
G1 X126.5000 Y120.0000 F12000
G1 X110.5000 E0.4180 F4630
G1 Y136.0000 E0.4180
G1 X126.5000 E0.4180
G1 Y120.0000 E0.4180
; feature sparse infill
G1 X126.2600 Y122.0000 F12000
G1 X110.7400 E0.4054 F7200
G1 Y125.0000 F12000
G1 X126.2600 E0.4054 F7200
G1 Y128.0000 F12000
G1 X110.7400 E0.4054 F7200
G1 Y131.0000 F12000
G1 X126.2600 E0.4054 F7200
G1 Y134.0000 F12000
G1 X110.7400 E0.4054 F7200
G1 E-1.0000 F1800 ; e-retract 1
G1 Z2.8500 F12000 ; z-hop start
;LAYER_CHANGE 13 of 24
SET_VELOCITY_LIMIT ACCEL=10000
; feature shells
G1 X109.7000 Y136.8000
G1 E1.0000 F1800 ; e-engage 1
G4 P5
G1 X127.3000 E0.4598 F2975
G1 Y119.2000 E0.4598
G1 X109.7000 E0.4598
G1 Y136.8000 E0.4598
G1 X110.1000 Y136.4000 F12000
G1 X126.9000 E0.4389 F4858
G1 Y119.6000 E0.4389
G1 X110.1000 E0.4389
G1 Y136.4000 E0.4389
G1 X110.5000 Y136.0000 F12000
G1 X126.5000 E0.4180 F4630
G1 Y120.0000 E0.4180
G1 X110.5000 E0.4180
G1 Y136.0000 E0.4180
; feature sparse infill
G1 X112.5000 Y135.7600 F12000
G1 Y120.2400 E0.4054 F7200
G1 X115.5000 F12000
G1 Y135.7600 E0.4054 F7200
G1 X118.5000 F12000
G1 Y120.2400 E0.4054 F7200
G1 X121.5000 F12000
G1 Y135.7600 E0.4054 F7200
G1 X124.5000 F12000
G1 Y120.2400 E0.4054 F7200
G1 E-1.0000 F1800 ; e-retract 1
G1 Z3.0500 F12000 ; z-hop start
; feature shells
G1 E-1 F3600
; --- toolchange to T0 ---
M104 T0 S215
T0
M109 T0 S215
G92 E0
G1 X128.7000 Y119.2000
G1 Z2.8500 ; z-hop end
G1 E1.0000 F1800 ; e-engage 1
G4 P5
G1 Y136.8000 E0.4598 F2975
G1 X146.3000 E0.4598
G1 Y119.2000 E0.4598
G1 X128.7000 E0.4598
G1 X129.1000 Y119.6000 F12000
G1 Y136.4000 E0.4389 F4858
G1 X145.9000 E0.4389
G1 Y119.6000 E0.4389
G1 X129.1000 E0.4389
G1 X129.5000 Y120.0000 F12000
G1 Y136.0000 E0.4180 F4630
G1 X145.5000 E0.4180
G1 Y120.0000 E0.4180
G1 X129.5000 E0.4180
; feature sparse infill
G1 X131.5000 Y120.2400 F12000
G1 Y135.7600 E0.4054 F7200
G1 X134.5000 F12000
G1 Y120.2400 E0.4054 F7200
G1 X137.5000 F12000
G1 Y135.7600 E0.4054 F7200
G1 X140.5000 F12000
G1 Y120.2400 E0.4054 F7200
G1 X143.5000 F12000
G1 Y135.7600 E0.4054 F7200
G1 E-1.0000 F1800 ; e-retract 1
G1 Z3.0500 F12000 ; z-hop start
;LAYER_CHANGE 14 of 24
SET_VELOCITY_LIMIT ACCEL=10000
; feature shells
G1 X146.3000 Y136.8000
G1 E1.0000 F1800 ; e-engage 1
G4 P5
G1 Y119.2000 E0.4598 F2975
G1 X128.7000 E0.4598
G1 Y136.8000 E0.4598
G1 X146.3000 E0.4598
G1 X145.9000 Y136.4000 F12000
G1 Y119.6000 E0.4389 F4858
G1 X129.1000 E0.4389
G1 Y136.4000 E0.4389
G1 X145.9000 E0.4389
G1 X145.5000 Y136.0000 F12000
G1 Y120.0000 E0.4180 F4630
G1 X129.5000 E0.4180
G1 Y136.0000 E0.4180
G1 X145.5000 E0.4180
; feature sparse infill
G1 X145.2600 Y134.0000 F12000
G1 X129.7400 E0.4054 F7200
G1 Y131.0000 F12000
G1 X145.2600 E0.4054 F7200
G1 Y128.0000 F12000
G1 X129.7400 E0.4054 F7200
G1 Y125.0000 F12000
G1 X145.2600 E0.4054 F7200
G1 Y122.0000 F12000
G1 X129.7400 E0.4054 F7200
G1 E-1.0000 F1800 ; e-retract 1
G1 Z3.2500 F12000 ; z-hop start
; feature shells
G1 E-1 F3600
; --- toolchange to T2 ---
M104 T2 S215
T2
M109 T2 S215
G92 E0
G1 X127.3000 Y119.2000
G1 Z3.0500 ; z-hop end
G1 E1.0000 F1800 ; e-engage 1
G4 P5
G1 X109.7000 E0.4598 F2975
G1 Y136.8000 E0.4598
G1 X127.3000 E0.4598
G1 Y119.2000 E0.4598
G1 X126.9000 Y119.6000 F12000
G1 X110.1000 E0.4389 F4858
G1 Y136.4000 E0.4389
G1 X126.9000 E0.4389
G1 Y119.6000 E0.4389
G1 X126.5000 Y120.0000 F12000
G1 X110.5000 E0.4180 F4630
G1 Y136.0000 E0.4180
G1 X126.5000 E0.4180
G1 Y120.0000 E0.4180
; feature sparse infill
G1 X126.2600 Y122.0000 F12000
G1 X110.7400 E0.4054 F7200
G1 Y125.0000 F12000
G1 X126.2600 E0.4054 F7200
G1 Y128.0000 F12000
G1 X110.7400 E0.4054 F7200
G1 Y131.0000 F12000
G1 X126.2600 E0.4054 F7200
G1 Y134.0000 F12000
G1 X110.7400 E0.4054 F7200
G1 E-1.0000 F1800 ; e-retract 1
G1 Z3.2500 F12000 ; z-hop start
;LAYER_CHANGE 15 of 24
SET_VELOCITY_LIMIT ACCEL=10000
G1 Z3.2500
; feature shells
G1 X109.7000 Y136.8000
G1 E1.0000 F1800 ; e-engage 1
G4 P5
G1 X127.3000 E0.4598 F2975
G1 Y119.2000 E0.4598
G1 X109.7000 E0.4598
G1 Y136.8000 E0.4598
G1 X110.1000 Y136.4000 F12000
G1 X126.9000 E0.4389 F4858
G1 Y119.6000 E0.4389
G1 X110.1000 E0.4389
G1 Y136.4000 E0.4389
G1 X110.5000 Y136.0000 F12000
G1 X126.5000 E0.4180 F4630
G1 Y120.0000 E0.4180
G1 X110.5000 E0.4180
G1 Y136.0000 E0.4180
; feature sparse infill
G1 X112.5000 Y135.7600 F12000
G1 Y120.2400 E0.4054 F7200
G1 X115.5000 F12000
G1 Y135.7600 E0.4054 F7200
G1 X118.5000 F12000
G1 Y120.2400 E0.4054 F7200
G1 X121.5000 F12000
G1 Y135.7600 E0.4054 F7200
G1 X124.5000 F12000
G1 Y120.2400 E0.4054 F7200
G1 E-1.0000 F1800 ; e-retract 1
G1 Z3.4500 F12000 ; z-hop start
; feature shells
G1 E-1 F3600
; --- toolchange to T0 ---
M104 T0 S215
T0
M109 T0 S215
G92 E0
G1 X128.7000 Y119.2000
G1 Z3.2500 ; z-hop end
G1 E1.0000 F1800 ; e-engage 1
G4 P5
G1 Y136.8000 E0.4598 F2975
G1 X146.3000 E0.4598
G1 Y119.2000 E0.4598
G1 X128.7000 E0.4598
G1 X129.1000 Y119.6000 F12000
G1 Y136.4000 E0.4389 F4858
G1 X145.9000 E0.4389
G1 Y119.6000 E0.4389
G1 X129.1000 E0.4389
G1 X129.5000 Y120.0000 F12000
G1 Y136.0000 E0.4180 F4630
G1 X145.5000 E0.4180
G1 Y120.0000 E0.4180
G1 X129.5000 E0.4180
; feature sparse infill
G1 X131.5000 Y120.2400 F12000
G1 Y135.7600 E0.4054 F7200
G1 X134.5000 F12000
G1 Y120.2400 E0.4054 F7200
G1 X137.5000 F12000
G1 Y135.7600 E0.4054 F7200
G1 X140.5000 F12000
G1 Y120.2400 E0.4054 F7200
G1 X143.5000 F12000
G1 Y135.7600 E0.4054 F7200
G1 E-1.0000 F1800 ; e-retract 1
G1 Z3.4500 F12000 ; z-hop start
;LAYER_CHANGE 16 of 24
SET_VELOCITY_LIMIT ACCEL=10000
; feature shells
G1 X146.3000 Y136.8000
G1 E1.0000 F1800 ; e-engage 1
G4 P5
G1 Y119.2000 E0.4598 F2975
G1 X128.7000 E0.4598
G1 Y136.8000 E0.4598
G1 X146.3000 E0.4598
G1 X145.9000 Y136.4000 F12000
G1 Y119.6000 E0.4389 F4858
G1 X129.1000 E0.4389
G1 Y136.4000 E0.4389
G1 X145.9000 E0.4389
G1 X145.5000 Y136.0000 F12000
G1 Y120.0000 E0.4180 F4630
G1 X129.5000 E0.4180
G1 Y136.0000 E0.4180
G1 X145.5000 E0.4180
; feature sparse infill
G1 X145.2600 Y134.0000 F12000
G1 X129.7400 E0.4054 F7200
G1 Y131.0000 F12000
G1 X145.2600 E0.4054 F7200
G1 Y128.0000 F12000
G1 X129.7400 E0.4054 F7200
G1 Y125.0000 F12000
G1 X145.2600 E0.4054 F7200
G1 Y122.0000 F12000
G1 X129.7400 E0.4054 F7200
G1 E-1.0000 F1800 ; e-retract 1
G1 Z3.6500 F12000 ; z-hop start
; feature shells
G1 E-1 F3600
; --- toolchange to T2 ---
M104 T2 S215
T2
M109 T2 S215
G92 E0
G1 X127.3000 Y119.2000
G1 Z3.4500 ; z-hop end
G1 E1.0000 F1800 ; e-engage 1
G4 P5
G1 X109.7000 E0.4598 F2975
G1 Y136.8000 E0.4598
G1 X127.3000 E0.4598
G1 Y119.2000 E0.4598
G1 X126.9000 Y119.6000 F12000
G1 X110.1000 E0.4389 F4858
G1 Y136.4000 E0.4389
G1 X126.9000 E0.4389
G1 Y119.6000 E0.4389
G1 X126.5000 Y120.0000 F12000
G1 X110.5000 E0.4180 F4630
G1 Y136.0000 E0.4180
G1 X126.5000 E0.4180
G1 Y120.0000 E0.4180
; feature sparse infill
G1 X126.2600 Y122.0000 F12000
G1 X110.7400 E0.4054 F7200
G1 Y125.0000 F12000
G1 X126.2600 E0.4054 F7200
G1 Y128.0000 F12000
G1 X110.7400 E0.4054 F7200
G1 Y131.0000 F12000
G1 X126.2600 E0.4054 F7200
G1 Y134.0000 F12000
G1 X110.7400 E0.4054 F7200
G1 E-1.0000 F1800 ; e-retract 1
G1 Z3.6500 F12000 ; z-hop start
;LAYER_CHANGE 17 of 24
SET_VELOCITY_LIMIT ACCEL=10000
G1 Z3.6500
; feature shells
G1 X109.7000 Y136.8000
G1 E1.0000 F1800 ; e-engage 1
G4 P5
G1 X127.3000 E0.4598 F2975
G1 Y119.2000 E0.4598
G1 X109.7000 E0.4598
G1 Y136.8000 E0.4598
G1 X110.1000 Y136.4000 F12000
G1 X126.9000 E0.4389 F4858
G1 Y119.6000 E0.4389
G1 X110.1000 E0.4389
G1 Y136.4000 E0.4389
G1 X110.5000 Y136.0000 F12000
G1 X126.5000 E0.4180 F4630
G1 Y120.0000 E0.4180
G1 X110.5000 E0.4180
G1 Y136.0000 E0.4180
; feature sparse infill
G1 X112.5000 Y135.7600 F12000
G1 Y120.2400 E0.4054 F7200
G1 X115.5000 F12000
G1 Y135.7600 E0.4054 F7200
G1 X118.5000 F12000
G1 Y120.2400 E0.4054 F7200
G1 X121.5000 F12000
G1 Y135.7600 E0.4054 F7200
G1 X124.5000 F12000
G1 Y120.2400 E0.4054 F7200
G1 E-1.0000 F1800 ; e-retract 1
G1 Z3.8500 F12000 ; z-hop start
; feature shells
G1 E-1 F3600
; --- toolchange to T0 ---
M104 T0 S215
T0
M109 T0 S215
G92 E0
G1 X128.7000 Y119.2000
G1 Z3.6500 ; z-hop end
G1 E1.0000 F1800 ; e-engage 1
G4 P5
G1 Y136.8000 E0.4598 F2975
G1 X146.3000 E0.4598
G1 Y119.2000 E0.4598
G1 X128.7000 E0.4598
G1 X129.1000 Y119.6000 F12000
G1 Y136.4000 E0.4389 F4858
G1 X145.9000 E0.4389
G1 Y119.6000 E0.4389
G1 X129.1000 E0.4389
G1 X129.5000 Y120.0000 F12000
G1 Y136.0000 E0.4180 F4630
G1 X145.5000 E0.4180
G1 Y120.0000 E0.4180
G1 X129.5000 E0.4180
; feature sparse infill
G1 X131.5000 Y120.2400 F12000
G1 Y135.7600 E0.4054 F7200
G1 X134.5000 F12000
G1 Y120.2400 E0.4054 F7200
G1 X137.5000 F12000
G1 Y135.7600 E0.4054 F7200
G1 X140.5000 F12000
G1 Y120.2400 E0.4054 F7200
G1 X143.5000 F12000
G1 Y135.7600 E0.4054 F7200
G1 E-1.0000 F1800 ; e-retract 1
G1 Z3.8500 F12000 ; z-hop start
;LAYER_CHANGE 18 of 24
SET_VELOCITY_LIMIT ACCEL=10000
; feature shells
G1 X146.3000 Y136.8000
G1 E1.0000 F1800 ; e-engage 1
G4 P5
G1 Y119.2000 E0.4598 F2975
G1 X128.7000 E0.4598
G1 Y136.8000 E0.4598
G1 X146.3000 E0.4598
G1 X145.9000 Y136.4000 F12000
G1 Y119.6000 E0.4389 F4858
G1 X129.1000 E0.4389
G1 Y136.4000 E0.4389
G1 X145.9000 E0.4389
G1 X145.5000 Y136.0000 F12000
G1 Y120.0000 E0.4180 F4630
G1 X129.5000 E0.4180
G1 Y136.0000 E0.4180
G1 X145.5000 E0.4180
; feature sparse infill
G1 X145.2600 Y134.0000 F12000
G1 X129.7400 E0.4054 F7200
G1 Y131.0000 F12000
G1 X145.2600 E0.4054 F7200
G1 Y128.0000 F12000
G1 X129.7400 E0.4054 F7200
G1 Y125.0000 F12000
G1 X145.2600 E0.4054 F7200
G1 Y122.0000 F12000
G1 X129.7400 E0.4054 F7200
G1 E-1.0000 F1800 ; e-retract 1
G1 Z4.0500 F12000 ; z-hop start
; feature shells
G1 E-1 F3600
; --- toolchange to T2 ---
M104 T2 S215
T2
M109 T2 S215
G92 E0
G1 X127.3000 Y119.2000
G1 Z3.8500 ; z-hop end
G1 E1.0000 F1800 ; e-engage 1
G4 P5
G1 X109.7000 E0.4598 F2975
G1 Y136.8000 E0.4598
G1 X127.3000 E0.4598
G1 Y119.2000 E0.4598
G1 X126.9000 Y119.6000 F12000
G1 X110.1000 E0.4389 F4858
G1 Y136.4000 E0.4389
G1 X126.9000 E0.4389
G1 Y119.6000 E0.4389
G1 X126.5000 Y120.0000 F12000
G1 X110.5000 E0.4180 F4630
G1 Y136.0000 E0.4180
G1 X126.5000 E0.4180
G1 Y120.0000 E0.4180
; feature sparse infill
G1 X126.2600 Y122.0000 F12000
G1 X110.7400 E0.4054 F7200
G1 Y125.0000 F12000
G1 X126.2600 E0.4054 F7200
G1 Y128.0000 F12000
G1 X110.7400 E0.4054 F7200
G1 Y131.0000 F12000
G1 X126.2600 E0.4054 F7200
G1 Y134.0000 F12000
G1 X110.7400 E0.4054 F7200
G1 E-1.0000 F1800 ; e-retract 1
G1 Z4.0500 F12000 ; z-hop start
;LAYER_CHANGE 19 of 24
SET_VELOCITY_LIMIT ACCEL=10000
; feature shells
G1 X109.7000 Y136.8000
G1 E1.0000 F1800 ; e-engage 1
G4 P5
G1 X127.3000 E0.4598 F2975
G1 Y119.2000 E0.4598
G1 X109.7000 E0.4598
G1 Y136.8000 E0.4598
G1 X110.1000 Y136.4000 F12000
G1 X126.9000 E0.4389 F4858
G1 Y119.6000 E0.4389
G1 X110.1000 E0.4389
G1 Y136.4000 E0.4389
G1 X110.5000 Y136.0000 F12000
G1 X126.5000 E0.4180 F4630
G1 Y120.0000 E0.4180
G1 X110.5000 E0.4180
G1 Y136.0000 E0.4180
; feature sparse infill
G1 X112.5000 Y135.7600 F12000
G1 Y120.2400 E0.4054 F7200
G1 X115.5000 F12000
G1 Y135.7600 E0.4054 F7200
G1 X118.5000 F12000
G1 Y120.2400 E0.4054 F7200
G1 X121.5000 F12000
G1 Y135.7600 E0.4054 F7200
G1 X124.5000 F12000
G1 Y120.2400 E0.4054 F7200
G1 E-1.0000 F1800 ; e-retract 1
G1 Z4.2500 F12000 ; z-hop start
; feature shells
G1 E-1 F3600
; --- toolchange to T0 ---
M104 T0 S215
T0
M109 T0 S215
G92 E0
G1 X128.7000 Y119.2000
G1 Z4.0500 ; z-hop end
G1 E1.0000 F1800 ; e-engage 1
G4 P5
G1 Y136.8000 E0.4598 F2975
G1 X146.3000 E0.4598
G1 Y119.2000 E0.4598
G1 X128.7000 E0.4598
G1 X129.1000 Y119.6000 F12000
G1 Y136.4000 E0.4389 F4858
G1 X145.9000 E0.4389
G1 Y119.6000 E0.4389
G1 X129.1000 E0.4389
G1 X129.5000 Y120.0000 F12000
G1 Y136.0000 E0.4180 F4630
G1 X145.5000 E0.4180
G1 Y120.0000 E0.4180
G1 X129.5000 E0.4180
; feature sparse infill
G1 X131.5000 Y120.2400 F12000
G1 Y135.7600 E0.4054 F7200
G1 X134.5000 F12000
G1 Y120.2400 E0.4054 F7200
G1 X137.5000 F12000
G1 Y135.7600 E0.4054 F7200
G1 X140.5000 F12000
G1 Y120.2400 E0.4054 F7200
G1 X143.5000 F12000
G1 Y135.7600 E0.4054 F7200
G1 E-1.0000 F1800 ; e-retract 1
G1 Z4.2500 F12000 ; z-hop start
;LAYER_CHANGE 20 of 24
SET_VELOCITY_LIMIT ACCEL=10000
; feature shells
G1 X146.3000 Y136.8000
G1 E1.0000 F1800 ; e-engage 1
G4 P5
G1 Y119.2000 E0.4598 F2975
G1 X128.7000 E0.4598
G1 Y136.8000 E0.4598
G1 X146.3000 E0.4598
G1 X145.9000 Y136.4000 F12000
G1 Y119.6000 E0.4389 F4858
G1 X129.1000 E0.4389
G1 Y136.4000 E0.4389
G1 X145.9000 E0.4389
G1 X145.5000 Y136.0000 F12000
G1 Y120.0000 E0.4180 F4630
G1 X129.5000 E0.4180
G1 Y136.0000 E0.4180
G1 X145.5000 E0.4180
; feature sparse infill
G1 X145.2600 Y134.0000 F12000
G1 X129.7400 E0.4054 F7200
G1 Y131.0000 F12000
G1 X145.2600 E0.4054 F7200
G1 Y128.0000 F12000
G1 X129.7400 E0.4054 F7200
G1 Y125.0000 F12000
G1 X145.2600 E0.4054 F7200
G1 Y122.0000 F12000
G1 X129.7400 E0.4054 F7200
G1 E-1.0000 F1800 ; e-retract 1
G1 Z4.4500 F12000 ; z-hop start
; feature shells
G1 E-1 F3600
; --- toolchange to T2 ---
M104 T2 S215
T2
M109 T2 S215
G92 E0
G1 X127.3000 Y119.2000
G1 Z4.2500 ; z-hop end
G1 E1.0000 F1800 ; e-engage 1
G4 P5
G1 X109.7000 E0.4598 F2975
G1 Y136.8000 E0.4598
G1 X127.3000 E0.4598
G1 Y119.2000 E0.4598
G1 X126.9000 Y119.6000 F12000
G1 X110.1000 E0.4389 F4858
G1 Y136.4000 E0.4389
G1 X126.9000 E0.4389
G1 Y119.6000 E0.4389
G1 X126.5000 Y120.0000 F12000
G1 X110.5000 E0.4180 F4630
G1 Y136.0000 E0.4180
G1 X126.5000 E0.4180
G1 Y120.0000 E0.4180
; feature sparse infill
G1 X126.2600 Y122.0000 F12000
G1 X110.7400 E0.4054 F7200
G1 Y125.0000 F12000
G1 X126.2600 E0.4054 F7200
G1 Y128.0000 F12000
G1 X110.7400 E0.4054 F7200
G1 Y131.0000 F12000
G1 X126.2600 E0.4054 F7200
G1 Y134.0000 F12000
G1 X110.7400 E0.4054 F7200
G1 E-1.0000 F1800 ; e-retract 1
G1 Z4.4500 F12000 ; z-hop start
;LAYER_CHANGE 21 of 24
SET_VELOCITY_LIMIT ACCEL=10000
G1 Z4.4500
; feature shells
G1 X109.7000 Y136.8000
G1 E1.0000 F1800 ; e-engage 1
G4 P5
G1 X127.3000 E0.4598 F2975
G1 Y119.2000 E0.4598
G1 X109.7000 E0.4598
G1 Y136.8000 E0.4598
G1 X110.1000 Y136.4000 F12000
G1 X126.9000 E0.4389 F4858
G1 Y119.6000 E0.4389
G1 X110.1000 E0.4389
G1 Y136.4000 E0.4389
G1 X110.5000 Y136.0000 F12000
G1 X126.5000 E0.4180 F4630
G1 Y120.0000 E0.4180
G1 X110.5000 E0.4180
G1 Y136.0000 E0.4180
G1 E-1.0000 F1800 ; e-retract 1
G1 Z4.6500 F12000 ; z-hop start
; feature solid fill
G1 X112.3057 Y119.2400
G1 X111.3057 Y120.2400
G1 Z4.4500 ; z-hop end
G1 E1.0000 F1800 ; e-engage 1
G4 P5
G1 X110.7400 Y120.8057 E0.0209 F7200
G1 Y121.3714 E0.0148
G1 X111.8714 Y120.2400 E0.0418
G1 X112.4371 E0.0148
G1 X110.7400 Y121.9371 E0.0627
G1 Y122.5027 E0.0148
G1 X113.0027 Y120.2400 E0.0836
G1 X113.5684 E0.0148
G1 X110.7400 Y123.0684 E0.1045
G1 Y123.6341 E0.0148
G1 X114.1341 Y120.2400 E0.1254
G1 X114.6998 E0.0148
G1 X110.7400 Y124.1998 E0.1463
G1 Y124.7655 E0.0148
G1 X115.2655 Y120.2400 E0.1672
G1 X115.8312 E0.0148
G1 X110.7400 Y125.3312 E0.1881
G1 Y125.8969 E0.0148
G1 X116.3969 Y120.2400 E0.2090
G1 X116.9625 E0.0148
G1 X110.7400 Y126.4625 E0.2299
G1 Y127.0282 E0.0148
G1 X117.5282 Y120.2400 E0.2508
G1 X118.0939 E0.0148
G1 X110.7400 Y127.5939 E0.2717
G1 Y128.1596 E0.0148
G1 X118.6596 Y120.2400 E0.2926
G1 X119.2253 E0.0148
G1 X110.7400 Y128.7253 E0.3135
G1 Y129.2910 E0.0148
G1 X119.7910 Y120.2400 E0.3344
G1 X120.3567 E0.0148
G1 X110.7400 Y129.8567 E0.3553
G1 Y130.4223 E0.0148
G1 X120.9223 Y120.2400 E0.3762
G1 X121.4880 E0.0148
G1 X110.7400 Y130.9880 E0.3971
G1 Y131.5537 E0.0148
G1 X122.0537 Y120.2400 E0.4180
G1 X122.6194 E0.0148
G1 X110.7400 Y132.1194 E0.4389
G1 Y132.6851 E0.0148
G1 X123.1851 Y120.2400 E0.4598
G1 X123.7508 E0.0148
G1 X110.7400 Y133.2508 E0.4807
G1 Y133.8165 E0.0148
G1 X124.3165 Y120.2400 E0.5016
G1 X124.8821 E0.0148
G1 X110.7400 Y134.3821 E0.5224
G1 Y134.9478 E0.0148
G1 X125.4478 Y120.2400 E0.5433
G1 X126.0135 E0.0148
G1 X110.7400 Y135.5135 E0.5642
G1 X111.0592 Y135.7600 E0.0105
G1 X126.2600 Y120.5592 E0.5616
G1 Y121.1249 E0.0148
G1 X111.6249 Y135.7600 E0.5407
G1 X112.1906 E0.0148
G1 X126.2600 Y121.6906 E0.5198
G1 Y122.2562 E0.0148
G1 X112.7563 Y135.7600 E0.4989
G1 X113.3219 E0.0148
G1 X126.2600 Y122.8219 E0.4780
G1 Y123.3876 E0.0148
G1 X113.8876 Y135.7600 E0.4571
G1 X114.4533 E0.0148
G1 X126.2600 Y123.9533 E0.4362
G1 Y124.5190 E0.0148
G1 X115.0190 Y135.7600 E0.4153
G1 X115.5847 E0.0148
G1 X126.2600 Y125.0847 E0.3944
G1 Y125.6504 E0.0148
G1 X116.1504 Y135.7600 E0.3735
G1 X116.7161 E0.0148
G1 X126.2600 Y126.2160 E0.3526
G1 Y126.7817 E0.0148
G1 X117.2817 Y135.7600 E0.3317
G1 X117.8474 E0.0148
G1 X126.2600 Y127.3474 E0.3108
G1 Y127.9131 E0.0148
G1 X118.4131 Y135.7600 E0.2899
G1 X118.9788 E0.0148
G1 X126.2600 Y128.4788 E0.2690
G1 Y129.0445 E0.0148
G1 X119.5445 Y135.7600 E0.2481
G1 X120.1102 E0.0148
G1 X126.2600 Y129.6102 E0.2272
G1 Y130.1758 E0.0148
G1 X120.6758 Y135.7600 E0.2063
G1 X121.2415 E0.0148
G1 X126.2600 Y130.7415 E0.1854
G1 Y131.3072 E0.0148
G1 X121.8072 Y135.7600 E0.1645
G1 X122.3729 E0.0148
G1 X126.2600 Y131.8729 E0.1436
G1 Y132.4386 E0.0148
G1 X122.9386 Y135.7600 E0.1227
G1 X123.5043 E0.0148
G1 X126.2600 Y133.0043 E0.1018
G1 Y133.5700 E0.0148
G1 X124.0700 Y135.7600 E0.0809
G1 X124.6356 E0.0148
G1 X126.2600 Y134.1356 E0.0600
G1 Y134.7013 E0.0148
G1 X125.2013 Y135.7600 E0.0391
G1 X126.0135 Y135.5135 E0.0222
G1 E-1.0000 F1800 ; e-retract 1
G1 Z4.6500 F12000 ; z-hop start
; feature shells
G1 E-1 F3600
; --- toolchange to T0 ---
M104 T0 S215
T0
M109 T0 S215
G92 E0
G1 X128.7000 Y136.8000
G1 Z4.4500 ; z-hop end
G1 E1.0000 F1800 ; e-engage 1
G4 P5
G1 X146.3000 E0.4598 F2975
G1 Y119.2000 E0.4598
G1 X128.7000 E0.4598
G1 Y136.8000 E0.4598
G1 X129.1000 Y136.4000 F12000
G1 X145.9000 E0.4389 F4858
G1 Y119.6000 E0.4389
G1 X129.1000 E0.4389
G1 Y136.4000 E0.4389
G1 X129.5000 Y136.0000 F12000
G1 X145.5000 E0.4180 F4630
G1 Y120.0000 E0.4180
G1 X129.5000 E0.4180
G1 Y136.0000 E0.4180
G1 E-1.0000 F1800 ; e-retract 1
G1 Z4.6500 F12000 ; z-hop start
; feature solid fill
G1 X131.3057 Y119.2400
G1 X130.3057 Y120.2400
G1 Z4.4500 ; z-hop end
G1 E1.0000 F1800 ; e-engage 1
G4 P5
G1 X129.7400 Y120.8057 E0.0209 F7200
G1 Y121.3714 E0.0148
G1 X130.8714 Y120.2400 E0.0418
G1 X131.4371 E0.0148
G1 X129.7400 Y121.9371 E0.0627
G1 Y122.5027 E0.0148
G1 X132.0027 Y120.2400 E0.0836
G1 X132.5684 E0.0148
G1 X129.7400 Y123.0684 E0.1045
G1 Y123.6341 E0.0148
G1 X133.1341 Y120.2400 E0.1254
G1 X133.6998 E0.0148
G1 X129.7400 Y124.1998 E0.1463
G1 Y124.7655 E0.0148
G1 X134.2655 Y120.2400 E0.1672
G1 X134.8312 E0.0148
G1 X129.7400 Y125.3312 E0.1881
G1 Y125.8969 E0.0148
G1 X135.3969 Y120.2400 E0.2090
G1 X135.9625 E0.0148
G1 X129.7400 Y126.4625 E0.2299
G1 Y127.0282 E0.0148
G1 X136.5282 Y120.2400 E0.2508
G1 X137.0939 E0.0148
G1 X129.7400 Y127.5939 E0.2717
G1 Y128.1596 E0.0148
G1 X137.6596 Y120.2400 E0.2926
G1 X138.2253 E0.0148
G1 X129.7400 Y128.7253 E0.3135
G1 Y129.2910 E0.0148
G1 X138.7910 Y120.2400 E0.3344
G1 X139.3567 E0.0148
G1 X129.7400 Y129.8567 E0.3553
G1 Y130.4223 E0.0148
G1 X139.9223 Y120.2400 E0.3762
G1 X140.4880 E0.0148
G1 X129.7400 Y130.9880 E0.3971
G1 Y131.5537 E0.0148
G1 X141.0537 Y120.2400 E0.4180
G1 X141.6194 E0.0148
G1 X129.7400 Y132.1194 E0.4389
G1 Y132.6851 E0.0148
G1 X142.1851 Y120.2400 E0.4598
G1 X142.7508 E0.0148
G1 X129.7400 Y133.2508 E0.4807
G1 Y133.8165 E0.0148
G1 X143.3165 Y120.2400 E0.5016
G1 X143.8821 E0.0148
G1 X129.7400 Y134.3821 E0.5224
G1 Y134.9478 E0.0148
G1 X144.4478 Y120.2400 E0.5433
G1 X145.0135 E0.0148
G1 X129.7400 Y135.5135 E0.5642
G1 X130.0592 Y135.7600 E0.0105
G1 X145.2600 Y120.5592 E0.5616
G1 Y121.1249 E0.0148
G1 X130.6249 Y135.7600 E0.5407
G1 X131.1906 E0.0148
G1 X145.2600 Y121.6906 E0.5198
G1 Y122.2562 E0.0148
G1 X131.7563 Y135.7600 E0.4989
G1 X132.3219 E0.0148
G1 X145.2600 Y122.8219 E0.4780
G1 Y123.3876 E0.0148
G1 X132.8876 Y135.7600 E0.4571
G1 X133.4533 E0.0148
G1 X145.2600 Y123.9533 E0.4362
G1 Y124.5190 E0.0148
G1 X134.0190 Y135.7600 E0.4153
G1 X134.5847 E0.0148
G1 X145.2600 Y125.0847 E0.3944
G1 Y125.6504 E0.0148
G1 X135.1504 Y135.7600 E0.3735
G1 X135.7161 E0.0148
G1 X145.2600 Y126.2160 E0.3526
G1 Y126.7817 E0.0148
G1 X136.2817 Y135.7600 E0.3317
G1 X136.8474 E0.0148
G1 X145.2600 Y127.3474 E0.3108
G1 Y127.9131 E0.0148
G1 X137.4131 Y135.7600 E0.2899
G1 X137.9788 E0.0148
G1 X145.2600 Y128.4788 E0.2690
G1 Y129.0445 E0.0148
G1 X138.5445 Y135.7600 E0.2481
G1 X139.1102 E0.0148
G1 X145.2600 Y129.6102 E0.2272
G1 Y130.1758 E0.0148
G1 X139.6758 Y135.7600 E0.2063
G1 X140.2415 E0.0148
G1 X145.2600 Y130.7415 E0.1854
G1 Y131.3072 E0.0148
G1 X140.8072 Y135.7600 E0.1645
G1 X141.3729 E0.0148
G1 X145.2600 Y131.8729 E0.1436
G1 Y132.4386 E0.0148
G1 X141.9386 Y135.7600 E0.1227
G1 X142.5043 E0.0148
G1 X145.2600 Y133.0043 E0.1018
G1 Y133.5700 E0.0148
G1 X143.0700 Y135.7600 E0.0809
G1 X143.6356 E0.0148
G1 X145.2600 Y134.1356 E0.0600
G1 Y134.7013 E0.0148
G1 X144.2013 Y135.7600 E0.0391
G1 X145.0135 Y135.5135 E0.0222
G1 E-1.0000 F1800 ; e-retract 1
G1 Z4.6500 F12000 ; z-hop start
;LAYER_CHANGE 22 of 24
SET_VELOCITY_LIMIT ACCEL=10000
; feature shells
G1 X146.3000 Y136.8000
G1 E1.0000 F1800 ; e-engage 1
G4 P5
G1 Y119.2000 E0.4598 F2975
G1 X128.7000 E0.4598
G1 Y136.8000 E0.4598
G1 X146.3000 E0.4598
G1 X145.9000 Y136.4000 F12000
G1 Y119.6000 E0.4389 F4858
G1 X129.1000 E0.4389
G1 Y136.4000 E0.4389
G1 X145.9000 E0.4389
G1 X145.5000 Y136.0000 F12000
G1 Y120.0000 E0.4180 F4630
G1 X129.5000 E0.4180
G1 Y136.0000 E0.4180
G1 X145.5000 E0.4180
G1 E-1.0000 F1800 ; e-retract 1
G1 Z4.8500 F12000 ; z-hop start
; feature solid fill
G1 X146.2600 Y119.8057
G1 X145.2600 Y120.8057
G1 Z4.6500 ; z-hop end
G1 E1.0000 F1800 ; e-engage 1
G4 P5
G1 X144.6943 Y120.2400 E0.0209 F7200
G1 X144.1286 E0.0148
G1 X145.2600 Y121.3714 E0.0418
G1 Y121.9371 E0.0148
G1 X143.5629 Y120.2400 E0.0627
G1 X142.9973 E0.0148
G1 X145.2600 Y122.5027 E0.0836
G1 Y123.0684 E0.0148
G1 X142.4316 Y120.2400 E0.1045
G1 X141.8659 E0.0148
G1 X145.2600 Y123.6341 E0.1254
G1 Y124.1998 E0.0148
G1 X141.3002 Y120.2400 E0.1463
G1 X140.7345 E0.0148
G1 X145.2600 Y124.7655 E0.1672
G1 Y125.3312 E0.0148
G1 X140.1688 Y120.2400 E0.1881
G1 X139.6031 E0.0148
G1 X145.2600 Y125.8969 E0.2090
G1 Y126.4625 E0.0148
G1 X139.0375 Y120.2400 E0.2299
G1 X138.4718 E0.0148
G1 X145.2600 Y127.0282 E0.2508
G1 Y127.5939 E0.0148
G1 X137.9061 Y120.2400 E0.2717
G1 X137.3404 E0.0148
G1 X145.2600 Y128.1596 E0.2926
G1 Y128.7253 E0.0148
G1 X136.7747 Y120.2400 E0.3135
G1 X136.2090 E0.0148
G1 X145.2600 Y129.2910 E0.3344
G1 Y129.8567 E0.0148
G1 X135.6433 Y120.2400 E0.3553
G1 X135.0777 E0.0148
G1 X145.2600 Y130.4223 E0.3762
G1 Y130.9880 E0.0148
G1 X134.5120 Y120.2400 E0.3971
G1 X133.9463 E0.0148
G1 X145.2600 Y131.5537 E0.4180
G1 Y132.1194 E0.0148
G1 X133.3806 Y120.2400 E0.4389
G1 X132.8149 E0.0148
G1 X145.2600 Y132.6851 E0.4598
G1 Y133.2508 E0.0148
G1 X132.2492 Y120.2400 E0.4807
G1 X131.6835 E0.0148
G1 X145.2600 Y133.8165 E0.5016
G1 Y134.3821 E0.0148
G1 X131.1179 Y120.2400 E0.5224
G1 X130.5522 E0.0148
G1 X145.2600 Y134.9478 E0.5433
G1 Y135.5135 E0.0148
G1 X129.9865 Y120.2400 E0.5642
G1 X129.7400 Y120.5592 E0.0105
G1 X144.9408 Y135.7600 E0.5616
G1 X144.3751 E0.0148
G1 X129.7400 Y121.1249 E0.5407
G1 Y121.6906 E0.0148
G1 X143.8094 Y135.7600 E0.5198
G1 X143.2437 E0.0148
G1 X129.7400 Y122.2562 E0.4989
G1 Y122.8219 E0.0148
G1 X142.6781 Y135.7600 E0.4780
G1 X142.1124 E0.0148
G1 X129.7400 Y123.3876 E0.4571
G1 Y123.9533 E0.0148
G1 X141.5467 Y135.7600 E0.4362
G1 X140.9810 E0.0148
G1 X129.7400 Y124.5190 E0.4153
G1 Y125.0847 E0.0148
G1 X140.4153 Y135.7600 E0.3944
G1 X139.8496 E0.0148
G1 X129.7400 Y125.6504 E0.3735
G1 Y126.2160 E0.0148
G1 X139.2839 Y135.7600 E0.3526
G1 X138.7183 E0.0148
G1 X129.7400 Y126.7817 E0.3317
G1 Y127.3474 E0.0148
G1 X138.1526 Y135.7600 E0.3108
G1 X137.5869 E0.0148
G1 X129.7400 Y127.9131 E0.2899
G1 Y128.4788 E0.0148
G1 X137.0212 Y135.7600 E0.2690
G1 X136.4555 E0.0148
G1 X129.7400 Y129.0445 E0.2481
G1 Y129.6102 E0.0148
G1 X135.8898 Y135.7600 E0.2272
G1 X135.3242 E0.0148
G1 X129.7400 Y130.1758 E0.2063
G1 Y130.7415 E0.0148
G1 X134.7585 Y135.7600 E0.1854
G1 X134.1928 E0.0148
G1 X129.7400 Y131.3072 E0.1645
G1 Y131.8729 E0.0148
G1 X133.6271 Y135.7600 E0.1436
G1 X133.0614 E0.0148
G1 X129.7400 Y132.4386 E0.1227
G1 Y133.0043 E0.0148
G1 X132.4957 Y135.7600 E0.1018
G1 X131.9300 E0.0148
G1 X129.7400 Y133.5700 E0.0809
G1 Y134.1356 E0.0148
G1 X131.3644 Y135.7600 E0.0600
G1 X130.7987 E0.0148
G1 X129.7400 Y134.7013 E0.0391
G1 X129.9865 Y135.5135 E0.0222
G1 E-1.0000 F1800 ; e-retract 1
G1 Z4.8500 F12000 ; z-hop start
; feature shells
G1 E-1 F3600
; --- toolchange to T2 ---
M104 T2 S215
T2
M109 T2 S215
G92 E0
G1 X127.3000 Y136.8000
G1 Z4.6500 ; z-hop end
G1 E1.0000 F1800 ; e-engage 1
G4 P5
G1 Y119.2000 E0.4598 F2975
G1 X109.7000 E0.4598
G1 Y136.8000 E0.4598
G1 X127.3000 E0.4598
G1 X126.9000 Y136.4000 F12000
G1 Y119.6000 E0.4389 F4858
G1 X110.1000 E0.4389
G1 Y136.4000 E0.4389
G1 X126.9000 E0.4389
G1 X126.5000 Y136.0000 F12000
G1 Y120.0000 E0.4180 F4630
G1 X110.5000 E0.4180
G1 Y136.0000 E0.4180
G1 X126.5000 E0.4180
G1 E-1.0000 F1800 ; e-retract 1
G1 Z4.8500 F12000 ; z-hop start
; feature solid fill
G1 X127.2600 Y119.8057
G1 X126.2600 Y120.8057
G1 Z4.6500 ; z-hop end
G1 E1.0000 F1800 ; e-engage 1
G4 P5
G1 X125.6943 Y120.2400 E0.0209 F7200
G1 X125.1286 E0.0148
G1 X126.2600 Y121.3714 E0.0418
G1 Y121.9371 E0.0148
G1 X124.5629 Y120.2400 E0.0627
G1 X123.9973 E0.0148
G1 X126.2600 Y122.5027 E0.0836
G1 Y123.0684 E0.0148
G1 X123.4316 Y120.2400 E0.1045
G1 X122.8659 E0.0148
G1 X126.2600 Y123.6341 E0.1254
G1 Y124.1998 E0.0148
G1 X122.3002 Y120.2400 E0.1463
G1 X121.7345 E0.0148
G1 X126.2600 Y124.7655 E0.1672
G1 Y125.3312 E0.0148
G1 X121.1688 Y120.2400 E0.1881
G1 X120.6031 E0.0148
G1 X126.2600 Y125.8969 E0.2090
G1 Y126.4625 E0.0148
G1 X120.0375 Y120.2400 E0.2299
G1 X119.4718 E0.0148
G1 X126.2600 Y127.0282 E0.2508
G1 Y127.5939 E0.0148
G1 X118.9061 Y120.2400 E0.2717
G1 X118.3404 E0.0148
G1 X126.2600 Y128.1596 E0.2926
G1 Y128.7253 E0.0148
G1 X117.7747 Y120.2400 E0.3135
G1 X117.2090 E0.0148
G1 X126.2600 Y129.2910 E0.3344
G1 Y129.8567 E0.0148
G1 X116.6433 Y120.2400 E0.3553
G1 X116.0777 E0.0148
G1 X126.2600 Y130.4223 E0.3762
G1 Y130.9880 E0.0148
G1 X115.5120 Y120.2400 E0.3971
G1 X114.9463 E0.0148
G1 X126.2600 Y131.5537 E0.4180
G1 Y132.1194 E0.0148
G1 X114.3806 Y120.2400 E0.4389
G1 X113.8149 E0.0148
G1 X126.2600 Y132.6851 E0.4598
G1 Y133.2508 E0.0148
G1 X113.2492 Y120.2400 E0.4807
G1 X112.6835 E0.0148
G1 X126.2600 Y133.8165 E0.5016
G1 Y134.3821 E0.0148
G1 X112.1179 Y120.2400 E0.5224
G1 X111.5522 E0.0148
G1 X126.2600 Y134.9478 E0.5433
G1 Y135.5135 E0.0148
G1 X110.9865 Y120.2400 E0.5642
G1 X110.7400 Y120.5592 E0.0105
G1 X125.9408 Y135.7600 E0.5616
G1 X125.3751 E0.0148
G1 X110.7400 Y121.1249 E0.5407
G1 Y121.6906 E0.0148
G1 X124.8094 Y135.7600 E0.5198
G1 X124.2437 E0.0148
G1 X110.7400 Y122.2562 E0.4989
G1 Y122.8219 E0.0148
G1 X123.6781 Y135.7600 E0.4780
G1 X123.1124 E0.0148
G1 X110.7400 Y123.3876 E0.4571
G1 Y123.9533 E0.0148
G1 X122.5467 Y135.7600 E0.4362
G1 X121.9810 E0.0148
G1 X110.7400 Y124.5190 E0.4153
G1 Y125.0847 E0.0148
G1 X121.4153 Y135.7600 E0.3944
G1 X120.8496 E0.0148
G1 X110.7400 Y125.6504 E0.3735
G1 Y126.2160 E0.0148
G1 X120.2839 Y135.7600 E0.3526
G1 X119.7183 E0.0148
G1 X110.7400 Y126.7817 E0.3317
G1 Y127.3474 E0.0148
G1 X119.1526 Y135.7600 E0.3108
G1 X118.5869 E0.0148
G1 X110.7400 Y127.9131 E0.2899
G1 Y128.4788 E0.0148
G1 X118.0212 Y135.7600 E0.2690
G1 X117.4555 E0.0148
G1 X110.7400 Y129.0445 E0.2481
G1 Y129.6102 E0.0148
G1 X116.8898 Y135.7600 E0.2272
G1 X116.3242 E0.0148
G1 X110.7400 Y130.1758 E0.2063
G1 Y130.7415 E0.0148
G1 X115.7585 Y135.7600 E0.1854
G1 X115.1928 E0.0148
G1 X110.7400 Y131.3072 E0.1645
G1 Y131.8729 E0.0148
G1 X114.6271 Y135.7600 E0.1436
G1 X114.0614 E0.0148
G1 X110.7400 Y132.4386 E0.1227
G1 Y133.0043 E0.0148
G1 X113.4957 Y135.7600 E0.1018
G1 X112.9300 E0.0148
G1 X110.7400 Y133.5700 E0.0809
G1 Y134.1356 E0.0148
G1 X112.3644 Y135.7600 E0.0600
G1 X111.7987 E0.0148
G1 X110.7400 Y134.7013 E0.0391
G1 X110.9865 Y135.5135 E0.0222
G1 E-1.0000 F1800 ; e-retract 1
G1 Z4.8500 F12000 ; z-hop start
;LAYER_CHANGE 23 of 24
SET_VELOCITY_LIMIT ACCEL=10000
; feature shells
G1 X109.7000 Y136.8000
G1 E1.0000 F1800 ; e-engage 1
G4 P5
G1 X127.3000 E0.4598 F2975
G1 Y119.2000 E0.4598
G1 X109.7000 E0.4598
G1 Y136.8000 E0.4598
G1 X110.1000 Y136.4000 F12000
G1 X126.9000 E0.4389 F4858
G1 Y119.6000 E0.4389
G1 X110.1000 E0.4389
G1 Y136.4000 E0.4389
G1 X110.5000 Y136.0000 F12000
G1 X126.5000 E0.4180 F4630
G1 Y120.0000 E0.4180
G1 X110.5000 E0.4180
G1 Y136.0000 E0.4180
G1 E-1.0000 F1800 ; e-retract 1
G1 Z5.0500 F12000 ; z-hop start
; feature solid fill
G1 X112.3057 Y119.2400
G1 X111.3057 Y120.2400
G1 Z4.8500 ; z-hop end
G1 E1.0000 F1800 ; e-engage 1
G4 P5
G1 X110.7400 Y120.8057 E0.0209 F4200
G1 Y121.3714 E0.0148
G1 X111.8714 Y120.2400 E0.0418
G1 X112.4371 E0.0148
G1 X110.7400 Y121.9371 E0.0627
G1 Y122.5027 E0.0148
G1 X113.0027 Y120.2400 E0.0836
G1 X113.5684 E0.0148
G1 X110.7400 Y123.0684 E0.1045
G1 Y123.6341 E0.0148
G1 X114.1341 Y120.2400 E0.1254
G1 X114.6998 E0.0148
G1 X110.7400 Y124.1998 E0.1463
G1 Y124.7655 E0.0148
G1 X115.2655 Y120.2400 E0.1672
G1 X115.8312 E0.0148
G1 X110.7400 Y125.3312 E0.1881
G1 Y125.8969 E0.0148
G1 X116.3969 Y120.2400 E0.2090
G1 X116.9625 E0.0148
G1 X110.7400 Y126.4625 E0.2299
G1 Y127.0282 E0.0148
G1 X117.5282 Y120.2400 E0.2508
G1 X118.0939 E0.0148
G1 X110.7400 Y127.5939 E0.2717
G1 Y128.1596 E0.0148
G1 X118.6596 Y120.2400 E0.2926
G1 X119.2253 E0.0148
G1 X110.7400 Y128.7253 E0.3135
G1 Y129.2910 E0.0148
G1 X119.7910 Y120.2400 E0.3344
G1 X120.3567 E0.0148
G1 X110.7400 Y129.8567 E0.3553
G1 Y130.4223 E0.0148
G1 X120.9223 Y120.2400 E0.3762
G1 X121.4880 E0.0148
G1 X110.7400 Y130.9880 E0.3971
G1 Y131.5537 E0.0148
G1 X122.0537 Y120.2400 E0.4180
G1 X122.6194 E0.0148
G1 X110.7400 Y132.1194 E0.4389
G1 Y132.6851 E0.0148
G1 X123.1851 Y120.2400 E0.4598
G1 X123.7508 E0.0148
G1 X110.7400 Y133.2508 E0.4807
G1 Y133.8165 E0.0148
G1 X124.3165 Y120.2400 E0.5016
G1 X124.8821 E0.0148
G1 X110.7400 Y134.3821 E0.5224
G1 Y134.9478 E0.0148
G1 X125.4478 Y120.2400 E0.5433
G1 X126.0135 E0.0148
G1 X110.7400 Y135.5135 E0.5642
G1 X111.0592 Y135.7600 E0.0105
G1 X126.2600 Y120.5592 E0.5616
G1 Y121.1249 E0.0148
G1 X111.6249 Y135.7600 E0.5407
G1 X112.1906 E0.0148
G1 X126.2600 Y121.6906 E0.5198
G1 Y122.2562 E0.0148
G1 X112.7563 Y135.7600 E0.4989
G1 X113.3219 E0.0148
G1 X126.2600 Y122.8219 E0.4780
G1 Y123.3876 E0.0148
G1 X113.8876 Y135.7600 E0.4571
G1 X114.4533 E0.0148
G1 X126.2600 Y123.9533 E0.4362
G1 Y124.5190 E0.0148
G1 X115.0190 Y135.7600 E0.4153
G1 X115.5847 E0.0148
G1 X126.2600 Y125.0847 E0.3944
G1 Y125.6504 E0.0148
G1 X116.1504 Y135.7600 E0.3735
G1 X116.7161 E0.0148
G1 X126.2600 Y126.2160 E0.3526
G1 Y126.7817 E0.0148
G1 X117.2817 Y135.7600 E0.3317
G1 X117.8474 E0.0148
G1 X126.2600 Y127.3474 E0.3108
G1 Y127.9131 E0.0148
G1 X118.4131 Y135.7600 E0.2899
G1 X118.9788 E0.0148
G1 X126.2600 Y128.4788 E0.2690
G1 Y129.0445 E0.0148
G1 X119.5445 Y135.7600 E0.2481
G1 X120.1102 E0.0148
G1 X126.2600 Y129.6102 E0.2272
G1 Y130.1758 E0.0148
G1 X120.6758 Y135.7600 E0.2063
G1 X121.2415 E0.0148
G1 X126.2600 Y130.7415 E0.1854
G1 Y131.3072 E0.0148
G1 X121.8072 Y135.7600 E0.1645
G1 X122.3729 E0.0148
G1 X126.2600 Y131.8729 E0.1436
G1 Y132.4386 E0.0148
G1 X122.9386 Y135.7600 E0.1227
G1 X123.5043 E0.0148
G1 X126.2600 Y133.0043 E0.1018
G1 Y133.5700 E0.0148
G1 X124.0700 Y135.7600 E0.0809
G1 X124.6356 E0.0148
G1 X126.2600 Y134.1356 E0.0600
G1 Y134.7013 E0.0148
G1 X125.2013 Y135.7600 E0.0391
G1 X126.0135 Y135.5135 E0.0222
G1 E-1.0000 F1800 ; e-retract 1
G1 Z5.0500 F12000 ; z-hop start
; feature shells
G1 E-1 F3600
; --- toolchange to T0 ---
M104 T0 S215
T0
M109 T0 S215
G92 E0
G1 X128.7000 Y136.8000
G1 Z4.8500 ; z-hop end
G1 E1.0000 F1800 ; e-engage 1
G4 P5
G1 X146.3000 E0.4598 F2975
G1 Y119.2000 E0.4598
G1 X128.7000 E0.4598
G1 Y136.8000 E0.4598
G1 X129.1000 Y136.4000 F12000
G1 X145.9000 E0.4389 F4858
G1 Y119.6000 E0.4389
G1 X129.1000 E0.4389
G1 Y136.4000 E0.4389
G1 X129.5000 Y136.0000 F12000
G1 X145.5000 E0.4180 F4630
G1 Y120.0000 E0.4180
G1 X129.5000 E0.4180
G1 Y136.0000 E0.4180
G1 E-1.0000 F1800 ; e-retract 1
G1 Z5.0500 F12000 ; z-hop start
; feature solid fill
G1 X131.3057 Y119.2400
G1 X130.3057 Y120.2400
G1 Z4.8500 ; z-hop end
G1 E1.0000 F1800 ; e-engage 1
G4 P5
G1 X129.7400 Y120.8057 E0.0209 F4200
G1 Y121.3714 E0.0148
G1 X130.8714 Y120.2400 E0.0418
G1 X131.4371 E0.0148
G1 X129.7400 Y121.9371 E0.0627
G1 Y122.5027 E0.0148
G1 X132.0027 Y120.2400 E0.0836
G1 X132.5684 E0.0148
G1 X129.7400 Y123.0684 E0.1045
G1 Y123.6341 E0.0148
G1 X133.1341 Y120.2400 E0.1254
G1 X133.6998 E0.0148
G1 X129.7400 Y124.1998 E0.1463
G1 Y124.7655 E0.0148
G1 X134.2655 Y120.2400 E0.1672
G1 X134.8312 E0.0148
G1 X129.7400 Y125.3312 E0.1881
G1 Y125.8969 E0.0148
G1 X135.3969 Y120.2400 E0.2090
G1 X135.9625 E0.0148
G1 X129.7400 Y126.4625 E0.2299
G1 Y127.0282 E0.0148
G1 X136.5282 Y120.2400 E0.2508
G1 X137.0939 E0.0148
G1 X129.7400 Y127.5939 E0.2717
G1 Y128.1596 E0.0148
G1 X137.6596 Y120.2400 E0.2926
G1 X138.2253 E0.0148
G1 X129.7400 Y128.7253 E0.3135
G1 Y129.2910 E0.0148
G1 X138.7910 Y120.2400 E0.3344
G1 X139.3567 E0.0148
G1 X129.7400 Y129.8567 E0.3553
G1 Y130.4223 E0.0148
G1 X139.9223 Y120.2400 E0.3762
G1 X140.4880 E0.0148
G1 X129.7400 Y130.9880 E0.3971
G1 Y131.5537 E0.0148
G1 X141.0537 Y120.2400 E0.4180
G1 X141.6194 E0.0148
G1 X129.7400 Y132.1194 E0.4389
G1 Y132.6851 E0.0148
G1 X142.1851 Y120.2400 E0.4598
G1 X142.7508 E0.0148
G1 X129.7400 Y133.2508 E0.4807
G1 Y133.8165 E0.0148
G1 X143.3165 Y120.2400 E0.5016
G1 X143.8821 E0.0148
G1 X129.7400 Y134.3821 E0.5224
G1 Y134.9478 E0.0148
G1 X144.4478 Y120.2400 E0.5433
G1 X145.0135 E0.0148
G1 X129.7400 Y135.5135 E0.5642
G1 X130.0592 Y135.7600 E0.0105
G1 X145.2600 Y120.5592 E0.5616
G1 Y121.1249 E0.0148
G1 X130.6249 Y135.7600 E0.5407
G1 X131.1906 E0.0148
G1 X145.2600 Y121.6906 E0.5198
G1 Y122.2562 E0.0148
G1 X131.7563 Y135.7600 E0.4989
G1 X132.3219 E0.0148
G1 X145.2600 Y122.8219 E0.4780
G1 Y123.3876 E0.0148
G1 X132.8876 Y135.7600 E0.4571
G1 X133.4533 E0.0148
G1 X145.2600 Y123.9533 E0.4362
G1 Y124.5190 E0.0148
G1 X134.0190 Y135.7600 E0.4153
G1 X134.5847 E0.0148
G1 X145.2600 Y125.0847 E0.3944
G1 Y125.6504 E0.0148
G1 X135.1504 Y135.7600 E0.3735
G1 X135.7161 E0.0148
G1 X145.2600 Y126.2160 E0.3526
G1 Y126.7817 E0.0148
G1 X136.2817 Y135.7600 E0.3317
G1 X136.8474 E0.0148
G1 X145.2600 Y127.3474 E0.3108
G1 Y127.9131 E0.0148
G1 X137.4131 Y135.7600 E0.2899
G1 X137.9788 E0.0148
G1 X145.2600 Y128.4788 E0.2690
G1 Y129.0445 E0.0148
G1 X138.5445 Y135.7600 E0.2481
G1 X139.1102 E0.0148
G1 X145.2600 Y129.6102 E0.2272
G1 Y130.1758 E0.0148
G1 X139.6758 Y135.7600 E0.2063
G1 X140.2415 E0.0148
G1 X145.2600 Y130.7415 E0.1854
G1 Y131.3072 E0.0148
G1 X140.8072 Y135.7600 E0.1645
G1 X141.3729 E0.0148
G1 X145.2600 Y131.8729 E0.1436
G1 Y132.4386 E0.0148
G1 X141.9386 Y135.7600 E0.1227
G1 X142.5043 E0.0148
G1 X145.2600 Y133.0043 E0.1018
G1 Y133.5700 E0.0148
G1 X143.0700 Y135.7600 E0.0809
G1 X143.6356 E0.0148
G1 X145.2600 Y134.1356 E0.0600
G1 Y134.7013 E0.0148
G1 X144.2013 Y135.7600 E0.0391
G1 X145.0135 Y135.5135 E0.0222
G1 E-1.0000 F1800 ; e-retract 1
G1 Z5.0500 F12000 ; z-hop start
; --- shutdown ---
M107
M106 S0
M106 P2 S0
;TYPE:Custom
M104 S0 T0
M104 S0 T2
M140 S0
G1 E-3 F3600
G28 X Y ; park
M73 P100 R0
; EXECUTABLE_BLOCK_END
; --- filament used: 572.18 mm ---
; --- print time: 483s ---